ccn,provider_name,state,county_raw,city,zip,latitude,longitude,county_name,geoid,county_name_official
45094,REAGAN COUNTY CARE CENTER,TX,Reagan,BIG LAKE,76932,31.2024,-101.46,Reagan,48383,Reagan
45197,BOOKER HOSPITAL DISTRICT DBA: TWIN OAKS MANOR,TX,Lipscomb,BOOKER,79005,36.4603,-100.54,Lipscomb,48295,Lipscomb
45199,MEMORIAL NURSING AND REHABILITATION CENTER,TX,Moore,DUMAS,79029,35.8643,-101.97,Moore,48341,Moore
45312,SAN JOSE NURSING CENTER,TX,Bexar,SAN ANTONIO,78221,29.3536,-98.509,Bexar,48029,Bexar
45341,HIGHLAND NURSING CENTER,TX,Bexar,SAN ANTONIO,78223,29.3689,-98.436,Bexar,48029,Bexar
45409,JOHN PAUL II NURSING HOME,TX,Karnes,KENEDY,78119,28.8176,-97.85,Karnes,48255,Karnes
45410,ST. FRANCIS NURSING HOME,TX,Bexar,SAN ANTONIO,78212,29.4529,-98.503,Bexar,48029,Bexar
45470,TRUMAN W SMITH CHILDREN'S CARE CENTER,TX,Gregg,GLADEWATER,75647,32.5438,-94.964,Gregg,48183,Gregg
45497,HANSFORD MANOR,TX,Hansford,SPEARMAN,79081,36.1909,-101.2,Hansford,48195,Hansford
455001,Avir at Beaumont,TX,Jefferson,BEAUMONT,77707,30.0657,-94.141,Jefferson,48245,Jefferson
455020,Avir at New Braunfels,TX,Comal,New Braunfels,78130,29.7196,-98.081,Comal,48091,Comal
455069,BAYLOR SCOTT & WHITE CONTINUING CARE HOSPITAL SKIL,TX,Bell,TEMPLE,76504,31.0775,-97.366,Bell,48027,Bell
455278,KNOPP HEALTHCARE AND REHAB CENTER INC,TX,Gillespie,FREDERICKSBURG,78624,30.2839,-98.861,Gillespie,48171,Gillespie
455333,Sharpville Residence and Rehabilitation Center,TX,Harris,Houston,77036,29.713,-95.516,Harris,48201,Harris
455351,Legacy Nursing and Rehabilitation,TX,Brazos,Bryan,77802,30.6533,-96.346,Brazos,48041,Brazos
455390,BUENA VIDA NURSING AND REHAB-SAN ANTONIO,TX,Bexar,SAN ANTONIO,78222,29.3758,-98.42,Bexar,48029,Bexar
455412,Brookhaven Nursing and Rehabilitation Center,TX,Denton,Carrollton,75010,33.0296,-96.886,Denton,48121,Denton
455416,WILLOW RIDGE WELLNESS & REHABILITATION,TX,Tarrant,Fort Worth,76108,32.7402,-97.457,Tarrant,48439,Tarrant
455423,MESA HILLS POST ACUTE,TX,Cameron,BROWNSVILLE,78520,25.9391,-97.508,Cameron,48061,Cameron
455429,ROSE TRAIL NURSING AND REHABILITATION CENTER,TX,Smith,TYLER,75701,32.3384,-95.286,Smith,48423,Smith
455444,MESA VISTA INN HEALTH CENTER,TX,Bexar,SAN ANTONIO,78240,29.5123,-98.6,Bexar,48029,Bexar
455450,MERIDIAN CARE MONTE VISTA,TX,Bexar,SAN ANTONIO,78212,29.451,-98.5,Bexar,48029,Bexar
455455,MERIDIAN CARE OF ALICE,TX,Jim Wells,ALICE,78332,27.7427,-98.086,Jim Wells,48249,Jim Wells
455457,Fort Worth Wellness & Rehabilitation,TX,Tarrant,Fort Worth,76114,32.7928,-97.398,Tarrant,48439,Tarrant
455463,THE MEADOWS HEALTH AND REHABILITATION CENTER,TX,Dallas,DALLAS,75231,32.8859,-96.759,Dallas,48113,Dallas
455467,ASBURY CARE CENTER OF ALAMO,TX,Bexar,SAN ANTONIO,78209,29.5118,-98.466,Bexar,48029,Bexar
455471,Mountain View Health & Rehabilitation,TX,El Paso,El Paso,79902,31.789,-106.5,El Paso,48141,El Paso
455475,WHITE SETTLEMENT NURSING CENTER,TX,Tarrant,WHITE SETTLEMENT,76108,32.7551,-97.449,Tarrant,48439,Tarrant
455477,LAKE JACKSON HEALTHCARE CENTER,TX,Brazoria,LAKE JACKSON,77566,29.014,-95.424,Brazoria,48039,Brazoria
455478,THE HEIGHTS NURSING AND REHABILITATION,TX,Mc Lennan,WACO,76707,31.5569,-97.166,Mclennan,48309,McLennan
455480,HERITAGE CONVALESCENT CENTER,TX,Potter,AMARILLO,79106,35.2049,-101.9,Potter,48375,Potter
455484,SAN JUAN NURSING HOME INC,TX,Hidalgo,SAN JUAN,78589,26.1922,-98.155,Hidalgo,48215,Hidalgo
455485,AVIR AT PETAL HILL,TX,Smith,TYLER,75701,32.3387,-95.286,Smith,48423,Smith
455486,Ennis Care Center,TX,Ellis,Ennis,75119,32.3123,-96.631,Ellis,48139,Ellis
455489,Avir at Jeffrey Place,TX,Mc Lennan,Waco,76710,31.5265,-97.185,Mclennan,48309,McLennan
455490,The Lakes at Texas City,TX,Galveston,Texas City,77591,29.3871,-95.005,Galveston,48167,Galveston
455493,Vista Hills Health Care Center,TX,El Paso,El Paso,79935,31.7574,-106.33,El Paso,48141,El Paso
455494,GLENVIEW WELLNESS & REHABILITATION,TX,Tarrant,NORTH RICHLAND HILLS,76180,32.8238,-97.214,Tarrant,48439,Tarrant
455497,CREEKSIDE TERRACE REHABILITATION,TX,Bell,BELTON,76513,31.0538,-97.486,Bell,48027,Bell
455503,ROSEWOOD HEIGHTS,TX,Bell,KILLEEN,76543,31.1176,-97.721,Bell,48027,Bell
455509,STERLING HILLS REHABILITATION AND HEALTHCARE CENTE,TX,Nolan,SWEETWATER,79556,32.4552,-100.39,Nolan,48353,Nolan
455510,Castle Hills Rehabilitation and Care Center,TX,Bexar,San Antonio,78216,29.5358,-98.506,Bexar,48029,Bexar
455513,Lampasas Nursing and Rehabilitation Center,TX,Lampasas,Lampasas,76550,31.0712,-98.188,Lampasas,48281,Lampasas
455515,"Copperas Cove LTC Partners, Inc.",TX,Coryell,Copperas Cove,76522,31.1276,-97.907,Coryell,48099,Coryell
455522,Avir at Temple West,TX,Bell,TEMPLE,76502,31.0652,-97.372,Bell,48027,Bell
455523,MORNINGSIDE MANOR,TX,Bexar,SAN ANTONIO,78201,29.4767,-98.548,Bexar,48029,Bexar
455528,Laredo West Nursing and Rehabilitation Center,TX,Webb,Laredo,78043,27.513,-99.48,Webb,48479,Webb
455532,PLEASANT SPRINGS HEALTHCARE CENTER,TX,Titus,MOUNT PLEASANT,75455,33.1696,-94.978,Titus,48449,Titus
455533,WINDCREST NURSING AND REHABILITATION,TX,Bexar,SAN ANTONIO,78239,29.5197,-98.394,Bexar,48029,Bexar
455536,AMISTAD NURSING AND REHABILITATION CENTER,TX,Uvalde,UVALDE,78801,29.2101,-99.775,Uvalde,48463,Uvalde
455538,MAGNOLIA MANOR,TX,Jefferson,GROVES,77619,29.946,-93.925,Jefferson,48245,Jefferson
455544,Paradigm at Stevens,TX,De Witt,Yoakum,77995,29.2937,-97.159,Dewitt,48123,DeWitt
455549,Jourdanton Nursing and Rehabilitation,TX,Atascosa,Jourdanton,78026,28.9186,-98.542,Atascosa,48013,Atascosa
455550,Avir at Center,TX,Shelby,CENTER,75935,31.7951,-94.164,Shelby,48419,Shelby
455551,PLAINVIEW HEALTHCARE CENTER,TX,Hale,PLAINVIEW,79072,34.2048,-101.73,Hale,48189,Hale
455554,Coral Rehabilitation and Nursing of McGregor,TX,Mc Lennan,Mc Gregor,76657,31.4334,-97.419,Mclennan,48309,McLennan
455555,GARDEN TERRACE HEALTHCARE CENTER,TX,Young,GRAHAM,76450,33.0878,-98.579,Young,48503,Young
455557,The Palms Nursing & Rehabilitation,TX,Nueces,Corpus Christi,78411,27.7068,-97.389,Nueces,48355,Nueces
455560,MCALLEN NURSING CENTER,TX,Hidalgo,MCALLEN,78501,26.2077,-98.215,Hidalgo,48215,Hidalgo
455561,BEAUMONT HEALTH CARE CENTER,TX,Jefferson,BEAUMONT,77707,30.0687,-94.155,Jefferson,48245,Jefferson
455563,DENISON NURSING AND REHAB,TX,Grayson,DENISON,75021,33.7398,-96.536,Grayson,48181,Grayson
455565,Avir at Town Creek,TX,Anderson,PALESTINE,75801,31.7308,-95.676,Anderson,48001,Anderson
455569,HERITAGE AT LONGVIEW HEALTHCARE CENTER,TX,Gregg,LONGVIEW,75605,32.53,-94.743,Gregg,48183,Gregg
455570,MINERAL WELLS NURSING & REHABILITATION,TX,Palo Pinto,MINERAL WELLS,76067,32.8,-98.146,Palo Pinto,48363,Palo Pinto
455572,WEDGEWOOD NURSING HOME,TX,Tarrant,FORT WORTH,76133,32.6513,-97.407,Tarrant,48439,Tarrant
455573,Texoma Healthcare Center,TX,Grayson,Sherman,75090,33.669,-96.605,Grayson,48181,Grayson
455574,Avir at Weatherford,TX,Parker,WEATHERFORD,76086,32.7783,-97.805,Parker,48367,Parker
455575,RETAMA MANOR NURSING CENTER,TX,Nueces,CORPUS CHRISTI,78405,27.7781,-97.414,Nueces,48355,Nueces
455576,RICHLAND HILLS REHABILITATION AND HEALTHCARE CENTE,TX,Tarrant,FORT WORTH,76118,32.8068,-97.235,Tarrant,48439,Tarrant
455579,SULPHUR SPRINGS HEALTH AND REHABILITATION,TX,Hopkins,SULPHUR SPRINGS,75482,33.1563,-95.605,Hopkins,48223,Hopkins
455582,PARADIGM AT BAY CITY,TX,Matagorda,BAY CITY,77414,28.9893,-95.969,Matagorda,48321,Matagorda
455586,Grand Terrace Rehabilitation and Healthcare,TX,Hidalgo,McAllen,78501,26.1958,-98.229,Hidalgo,48215,Hidalgo
455589,FORTRESS NURSING AND REHABILITATION,TX,Brazos,COLLEGE STATION,77845,30.5786,-96.299,Brazos,48041,Brazos
455591,FOCUSED CARE OF WAXAHACHIE,TX,Ellis,WAXAHACHIE,75165,32.3972,-96.863,Ellis,48139,Ellis
455592,WEST SIDE CAMPUS OF CARE,TX,Tarrant,WHITE SETTLEMENT,76108,32.7405,-97.467,Tarrant,48439,Tarrant
455594,PARADIGM AT KOUNTZE,TX,Hardin,KOUNTZE,77625,30.3674,-94.319,Hardin,48199,Hardin
455597,MEMORIAL MEDICAL NURSING CENTER,TX,Bexar,SAN ANTONIO,78212,29.4406,-98.497,Bexar,48029,Bexar
455599,Heritage Park Rehabilitation and Skilled Nursing C,TX,Travis,Austin,78722,30.2825,-97.712,Travis,48453,Travis
455601,Alvarado Meadows Nursing & Rehabilitation,TX,Johnson,Alvarado,76009,32.4075,-97.218,Johnson,48251,Johnson
455602,WESTERN HILLS HEALTHCARE RESIDENCE,TX,Comanche,COMANCHE,76442,31.9012,-98.618,Comanche,48093,Comanche
455606,PARK VIEW CARE CENTER,TX,Tarrant,FORT WORTH,76103,32.7451,-97.279,Tarrant,48439,Tarrant
455608,HACIENDA OAKS AT BEEVILLE,TX,Bee,BEEVILLE,78102,28.4034,-97.749,Bee,48025,Bee
455611,GRACE CARE CENTER OF OLNEY,TX,Young,OLNEY,76374,33.3726,-98.773,Young,48503,Young
455613,Avir at Courtyard,TX,Harris,HOUSTON,77087,29.6763,-95.292,Harris,48201,Harris
455617,Christian Care Center,TX,Dallas,Mesquite,75150,32.8355,-96.613,Dallas,48113,Dallas
455618,Eden Home,TX,Comal,New Braunfels,78130,29.723,-98.129,Comal,48091,Comal
455621,Valley Grande Manor,TX,Hidalgo,Weslaco,78596,26.1482,-97.982,Hidalgo,48215,Hidalgo
455625,ALTA VISTA REHABILITATION AND HEALTHCARE,TX,Cameron,BROWNSVILLE,78521,25.9283,-97.489,Cameron,48061,Cameron
455626,Oakmont Guest Care Center,TX,Tarrant,Hurst,76054,32.8663,-97.178,Tarrant,48439,Tarrant
455627,Denton Village by PureHealth,TX,Denton,DENTON,76201,33.2372,-97.144,Denton,48121,Denton
455628,HILLTOP VILLAGE NURSING AND REHABILITATION,TX,Kerr,KERRVILLE,78028,30.0766,-99.157,Kerr,48265,Kerr
455631,COLONIAL MANOR NURSING CENTER,TX,Johnson,CLEBURNE,76031,32.3651,-97.406,Johnson,48251,Johnson
455637,Wellington Rehabilitation and Healthcare,TX,Bell,Temple,76504,31.0839,-97.364,Bell,48027,Bell
455638,GREENVIEW NURSING AND REHABILITATION,TX,Mc Lennan,WACO,76710,31.5162,-97.193,Mclennan,48309,McLennan
455641,PALO DURO NURSING HOME,TX,Armstrong,CLAUDE,79019,35.1058,-101.36,Armstrong,48011,Armstrong
455642,DAYTON NURSING AND REHABILITATION,TX,Liberty,DAYTON,77535,30.0592,-94.894,Liberty,48291,Liberty
455643,AVIR AT BAY CITY,TX,Matagorda,BAY CITY,77414,28.988,-95.981,Matagorda,48321,Matagorda
455646,MARSHALL MANOR NURSING & REHABILITATION CENTER,TX,Harrison,MARSHALL,75670,32.536,-94.368,Harrison,48203,Harrison
455651,DOWNTOWN HEALTH AND REHABILITATION CENTER,TX,Tarrant,FORT WORTH,76104,32.7408,-97.336,Tarrant,48439,Tarrant
455652,SILVER CREEK MANOR,TX,Bexar,SAN ANTONIO,78250,29.4858,-98.66,Bexar,48029,Bexar
455653,SKYLINE NURSING CENTER,TX,Dallas,DALLAS,75233,32.7107,-96.875,Dallas,48113,Dallas
455662,Windsor Nursing and Rehabilitation Center of Mcall,TX,Hidalgo,Mcallen,78501,26.1955,-98.234,Hidalgo,48215,Hidalgo
455670,Ridgecrest Retirement and Healthcare Community,TX,Mc Lennan,Waco,76712,31.5272,-97.228,Mclennan,48309,McLennan
455672,GOLDEN PALMS REHABILITATION AND RETIREMENT,TX,Cameron,HARLINGEN,78550,26.1752,-97.666,Cameron,48061,Cameron
455673,PARKWOOD IN THE PINES,TX,Angelina,LUFKIN,75904,31.3404,-94.748,Angelina,48005,Angelina
455675,LANDMARK OF AMARILLO REHABILITATION AND NURSING CE,TX,Potter,AMARILLO,79124,35.2167,-101.9,Potter,48375,Potter
455676,COMMUNITY CARE CENTER OF HONDO,TX,Medina,HONDO,78861,29.3569,-99.102,Medina,48325,Medina
455678,AVIR AT LONGVIEW,TX,Gregg,LONGVIEW,75605,32.5322,-94.74,Gregg,48183,Gregg
455682,Afton Oaks Nursing Center,TX,Harris,Houston,77087,29.687,-95.293,Harris,48201,Harris
455683,HENDRICK SKILLED NURSING FACILITY,TX,Taylor,ABILENE,79601,32.4716,-99.731,Taylor,48441,Taylor
455684,LONGVIEW HILL NURSING AND REHABILITATION CENTER,TX,Gregg,LONGVIEW,75605,32.5382,-94.732,Gregg,48183,Gregg
455685,LAKE FOREST VILLAGE BY PUREHEALTH,TX,Denton,DENTON,76210,33.1588,-97.12,Denton,48121,Denton
455687,ALAMEDA OAKS NURSING CENTER,TX,Nueces,CORPUS CHRISTI,78404,27.7815,-97.403,Nueces,48355,Nueces
455689,SAN PEDRO MANOR,TX,Bexar,SAN ANTONIO,78212,29.4491,-98.498,Bexar,48029,Bexar
455690,PARKS HEALTH CENTER,TX,Ector,ODESSA,79765,31.9093,-102.29,Ector,48135,Ector
455697,AVIR AT CORPUS CHRISTI,TX,Nueces,CORPUS CHRISTI,78405,27.7628,-97.459,Nueces,48355,Nueces
455699,Paradigm at the Creek,TX,Wharton,Wharton,77488,29.3268,-96.116,Wharton,48481,Wharton
455700,WILLOWBROOK NURSING CENTER,TX,Nacogdoches,NACOGDOCHES,75965,31.6538,-94.655,Nacogdoches,48347,Nacogdoches
455703,Oakmont Healthcare and Rehabilitation Center of Ka,TX,Harris,Katy,77449,29.7918,-95.742,Harris,48201,Harris
455713,Avir at San Antonio,TX,Bexar,San Antonio,78224,29.355,-98.548,Bexar,48029,Bexar
455714,Paradigm Northwest,TX,Harris,Houston,77090,30.0234,-95.445,Harris,48201,Harris
455715,Monument Rehabilitation and Nursing Center,TX,Fayette,La Grange,78945,29.8872,-96.875,Fayette,48149,Fayette
455718,PEBBLE CREEK NURSING CENTER,TX,El Paso,EL PASO,79936,31.7461,-106.3,El Paso,48141,El Paso
455724,WATERSIDE NURSING & REHABILITATION,TX,Kerr,KERRVILLE,78028,30.0408,-99.137,Kerr,48265,Kerr
455725,Oakmont Healthcare and Rehabilitation of Humble,TX,Harris,Humble,77338,29.979,-95.259,Harris,48201,Harris
455726,RIVERSIDE OAKS,TX,Victoria,VICTORIA,77901,28.8229,-96.973,Victoria,48469,Victoria
455727,Park Village Healthcare and Rehabilitation,TX,Dallas,Desoto,75115,32.5752,-96.855,Dallas,48113,Dallas
455731,Advanced Health & Rehab Center of Garland,TX,Dallas,Garland,75043,32.8756,-96.614,Dallas,48113,Dallas
455732,KIRKWOOD MANOR,TX,Comal,NEW BRAUNFELS,78130,29.6946,-98.156,Comal,48091,Comal
455733,HERITAGE AT TURNER PARK HEALTH & REHAB,TX,Dallas,GRAND PRAIRIE,75050,32.7488,-96.994,Dallas,48113,Dallas
455737,CONCHO HEALTH & REHABILITATION CENTER,TX,Concho,EDEN,76837,31.2209,-99.848,Concho,48095,Concho
455742,THE LEV AT SAN ANTONIO,TX,Bexar,SAN ANTONIO,78230,29.5084,-98.551,Bexar,48029,Bexar
455744,AVIR AT STEPHENVILLE,TX,Erath,STEPHENVILLE,76401,32.2252,-98.227,Erath,48143,Erath
455745,Timberwood Nursing and Rehabilitation Center,TX,Polk,Livingston,77351,30.6548,-94.946,Polk,48373,Polk
455748,ASHFORD HALL,TX,Dallas,IRVING,75061,32.8347,-96.947,Dallas,48113,Dallas
455753,OAK BROOK HEALTH CARE CENTER,TX,Smith,WHITEHOUSE,75791,32.2155,-95.222,Smith,48423,Smith
455754,NORTHEAST REHABILITATION AND HEALTHCARE CENTER,TX,Bexar,SAN ANTONIO,78218,29.4928,-98.426,Bexar,48029,Bexar
455757,SPINDLETOP HILL NURSING & REHAB CENTER,TX,Jefferson,BEAUMONT,77707,30.0676,-94.143,Jefferson,48245,Jefferson
455761,MISSION NURSING & REHABILITATION CENTER,TX,Hidalgo,MISSION,78572,26.1965,-98.313,Hidalgo,48215,Hidalgo
455762,SAN ANTONIO WELLNESS & REHABILITATION,TX,Bexar,SAN ANTONIO,78247,29.5881,-98.402,Bexar,48029,Bexar
455763,PARK BEND REHABILITATION AND HEALTHCARE CENTER,TX,Johnson,BURLESON,76028,32.583,-97.316,Johnson,48251,Johnson
455770,OAK BEND MEDICAL CENTER,TX,Fort Bend,RICHMOND,77469,29.5783,-95.771,Fort Bend,48157,Fort Bend
455771,HEARTHSTONE NURSING AND REHABILITATION,TX,Williamson,ROUND ROCK,78681,30.5116,-97.711,Williamson,48491,Williamson
455785,Western Hills Nursing & Rehabilitation,TX,Bell,Temple,76504,31.1094,-97.369,Bell,48027,Bell
455789,OAK PARK NURSING AND REHABILITATION CENTER,TX,Bexar,SAN ANTONIO,78229,29.5016,-98.575,Bexar,48029,Bexar
455796,TOWN AND COUNTRY NURSING AND REHABILITATION CENTER,TX,Kendall,BOERNE,78006,29.7986,-98.734,Kendall,48259,Kendall
455797,PEARSALL NURSING AND REHABILITATION CENTER,TX,Frio,PEARSALL,78061,28.8973,-99.117,Frio,48163,Frio
455798,BEDFORD WELLNESS & REHABILITATION,TX,Tarrant,BEDFORD,76021,32.8395,-97.142,Tarrant,48439,Tarrant
455799,AUSTIN WELLNESS & REHABILITATION,TX,Travis,AUSTIN,78750,30.4309,-97.781,Travis,48453,Travis
455800,The Lev Attown Park,TX,Harris,Houston,77036,29.7141,-95.543,Harris,48201,Harris
455802,SPANISH MEADOWS,TX,Cameron,BROWNSVILLE,78520,25.8992,-97.505,Cameron,48061,Cameron
455804,NORTHGATE HEALTH AND REHABILITATION CENTER,TX,Bexar,SAN ANTONIO,78240,29.5123,-98.6,Bexar,48029,Bexar
455806,THE TERRACE AT DENISON,TX,Grayson,DENISON,75020,33.7684,-96.553,Grayson,48181,Grayson
455808,AVIR AT JACKSBORO,TX,Jack,JACKSBORO,76458,33.2228,-98.157,Jack,48237,Jack
455812,PARADIGM AT FIRST COLONY,TX,Fort Bend,MISSOURI CITY,77459,29.6009,-95.58,Fort Bend,48157,Fort Bend
455815,Fallbrook Rehabiliation and Care Center,TX,Harris,Houston,77064,29.9267,-95.582,Harris,48201,Harris
455817,SAN ANTONIO NORTH NURSING AND REHABILITATION,TX,Bexar,SAN ANTONIO,78212,29.4428,-98.493,Bexar,48029,Bexar
455819,Arlington Heights Health and Rehabilitation Center,TX,Tarrant,Fort Worth,76107,32.7253,-97.392,Tarrant,48439,Tarrant
455822,WINDSOR NURSING AND REHABILITATION CENTER OF HARLI,TX,Cameron,HARLINGEN,78550,26.1633,-97.675,Cameron,48061,Cameron
455823,Treemont Healthcare and Rehabilitation Center,TX,Dallas,Dallas,75230,32.9222,-96.815,Dallas,48113,Dallas
455824,WURZBACH NURSING AND REHABILITATION,TX,Bexar,SAN ANTONIO,78229,29.517,-98.576,Bexar,48029,Bexar
455831,PARIS HEALTHCARE CENTER,TX,Lamar,PARIS,75460,33.6885,-95.552,Lamar,48277,Lamar
455832,WINDSOR GARDENS,TX,Dallas,LANCASTER,75146,32.6042,-96.811,Dallas,48113,Dallas
455834,Avir at Athens,TX,Henderson,ATHENS,75751,32.1748,-95.848,Henderson,48213,Henderson
455835,Interlochen Health and Rehabilitation Center,TX,Tarrant,Arlington,76012,32.7554,-97.146,Tarrant,48439,Tarrant
455838,ROBSTOWN NURSING AND REHABILITATION CENTER,TX,Nueces,ROBSTOWN,78380,27.7987,-97.659,Nueces,48355,Nueces
455840,THE ARBORS HEALTHCARE AND REHABILITATION CENTER,TX,Cherokee,RUSK,75785,31.785,-95.157,Cherokee,48073,Cherokee
455849,ADVANCED REHABILITATION AND HEALTHCARE OF BOWIE,TX,Montague,BOWIE,76230,33.5617,-97.879,Montague,48337,Montague
455850,HURST PLAZA NURSING & REHAB,TX,Tarrant,HURST,76053,32.8261,-97.165,Tarrant,48439,Tarrant
455855,KENNEDY HEALTH & REHAB,TX,Angelina,LUFKIN,75904,31.3359,-94.761,Angelina,48005,Angelina
455856,VAN HEALTHCARE,TX,Van Zandt,VAN,75790,32.5233,-95.643,Van Zandt,48467,Van Zandt
455861,Landmark of Plano Rehabilitation and Nursing Cente,TX,Collin,Plano,75075,33.0214,-96.768,Collin,48085,Collin
455862,Coral Rehabilitation and Nursing of Austin,TX,Travis,Austin,78757,30.3452,-97.737,Travis,48453,Travis
455864,LIFE CARE CENTER OF PLANO,TX,Collin,PLANO,75075,33.0267,-96.765,Collin,48085,Collin
455866,BROOKDALE WESTLAKE HILLS,TX,Travis,AUSTIN,78746,30.2657,-97.788,Travis,48453,Travis
455869,GUADALUPE VALLEY NURSING CENTER,TX,Guadalupe,SEGUIN,78155,29.5638,-97.947,Guadalupe,48187,Guadalupe
455871,Lynwood Nursing and Rehabilitation,TX,Hockley,Levelland,79336,33.4055,-102.35,Hockley,48219,Hockley
455872,ARLINGTON RESIDENCE AND REHABILITATION CENTER,TX,Tarrant,ARLINGTON,76011,32.7448,-97.04,Tarrant,48439,Tarrant
455876,The Woodlands Healthcare Center,TX,Montgomery,The Woodlands,77381,30.1641,-95.506,Montgomery,48339,Montgomery
455879,MARSHALL MANOR WEST,TX,Harrison,MARSHALL,75670,32.535,-94.37,Harrison,48203,Harrison
455881,DFW Nursing & Rehab,TX,Tarrant,Fort Worth,76104,32.7364,-97.334,Tarrant,48439,Tarrant
455889,Lily Springs Rehabilitation and Healthcare Center,TX,Lampasas,Lampasas,76550,31.0663,-98.181,Lampasas,48281,Lampasas
455891,RENAISSANCE PARK MULTI CARE CENTER,TX,Tarrant,FORT WORTH,76109,32.6922,-97.412,Tarrant,48439,Tarrant
455893,GRACE CARE CENTER OF HENRIETTA,TX,Clay,HENRIETTA,76365,33.8131,-98.203,Clay,48077,Clay
455895,Five Points at Lake Highlands Nursing and Rehab,TX,Dallas,Dallas,75238,32.8704,-96.729,Dallas,48113,Dallas
455900,Focused Care at Mount Pleasant,TX,Titus,Mount Pleasant,75455,33.1712,-94.974,Titus,48449,Titus
455901,SWAN HEALTH AT WICHITA FALLS,TX,Wichita,WICHITA FALLS,76301,33.9029,-98.5,Wichita,48485,Wichita
455903,LAKE LODGE NURSING & REHABILITATION,TX,Tarrant,LAKE WORTH,76135,32.81,-97.447,Tarrant,48439,Tarrant
455904,ROWLETT HEALTH AND REHABILITATION CENTER,TX,Dallas,ROWLETT,75088,32.9196,-96.513,Dallas,48113,Dallas
455906,LONE STAR REHABILITATION & WELLNESS CENTER,TX,Erath,STEPHENVILLE,76401,32.2172,-98.24,Erath,48143,Erath
455908,SCHULENBURG REGENCY NURSING CENTER,TX,Fayette,SCHULENBURG,78956,29.6846,-96.9,Fayette,48149,Fayette
455910,CHANDLER NURSING CENTER,TX,Henderson,CHANDLER,75758,32.3134,-95.483,Henderson,48213,Henderson
455915,Granbury Care Center,TX,Hood,Granbury,76048,32.441,-97.799,Hood,48221,Hood
455916,UNIVERSITY PARK NURSING AND REHABILITATION,TX,Wichita,WICHITA FALLS,76310,33.8698,-98.561,Wichita,48485,Wichita
455917,Deer Creek of Wimberley,TX,Hays,Wimberley,78676,29.998,-98.09,Hays,48209,Hays
455923,Avir at Beeville,TX,Bee,Beeville,78102,28.404,-97.731,Bee,48025,Bee
455925,VERANDA REHABILITATION AND HEALTHCARE,TX,Cameron,HARLINGEN,78550,26.1519,-97.854,Cameron,48061,Cameron
455929,GRANBURY REHAB & NURSING,TX,Hood,GRANBURY,76048,32.422,-97.815,Hood,48221,Hood
455930,CEDAR RIDGE REHABILITATION AND HEALTHCARE CENTER,TX,Denton,PILOT POINT,76258,33.4127,-96.942,Denton,48121,Denton
455931,ADVANCED REHABILITATION AND HEALTHCARE OF VERNON,TX,Wilbarger,VERNON,76384,34.1594,-99.317,Wilbarger,48487,Wilbarger
455934,NORTHERN OAKS LIVING & REHABILITATION CENTER,TX,Taylor,ABILENE,79603,32.4823,-99.746,Taylor,48441,Taylor
455935,EL PASO HEALTH & REHABILITATION CENTER,TX,El Paso,EL PASO,79936,31.7515,-106.3,El Paso,48141,El Paso
455936,FOCUSED CARE AT LAMESA,TX,Dawson,LAMESA,79331,32.7443,-101.97,Dawson,48115,Dawson
455940,Avir at Lubbock,TX,Lubbock,Lubbock,79414,33.5514,-101.92,Lubbock,48303,Lubbock
455941,Avir at Enchanted Rock,TX,Gillespie,FREDERICKSBURG,78624,30.264,-98.882,Gillespie,48171,Gillespie
455942,LUBBOCK HEALTH CARE CENTER,TX,Lubbock,LUBBOCK,79410,33.5741,-101.9,Lubbock,48303,Lubbock
455944,FOCUSED CARE AT CLARKSVILLE,TX,Red River,CLARKSVILLE,75426,33.6128,-95.078,Red River,48387,Red River
455946,SWEETWATER HEALTHCARE CENTER,TX,Nolan,SWEETWATER,79556,32.4793,-100.39,Nolan,48353,Nolan
455952,CLEVELAND HEALTH CARE CENTER,TX,Liberty,CLEVELAND,77327,30.3411,-95.079,Liberty,48291,Liberty
455954,PECAN CREEK HEALTHCARE CENTER,TX,Hamilton,HAMILTON,76531,31.6978,-98.114,Hamilton,48193,Hamilton
455957,Santa Fe Health & Rehabilitation Center,TX,Parker,1205 Santa Fe Dr,76086,32.7451,-97.782,Parker,48367,Parker
455959,WESTWARD TRAILS NURSING AND REHABILITATION,TX,Nacogdoches,NACOGDOCHES,75964,31.6515,-94.69,Nacogdoches,48347,Nacogdoches
455960,HAYS NURSING AND REHABILITATION CENTER,TX,Hays,SAN MARCOS,78666,29.8546,-97.946,Hays,48209,Hays
455961,PALO PINTO NURSING CENTER,TX,Palo Pinto,MINERAL WELLS,76067,32.8036,-98.146,Palo Pinto,48363,Palo Pinto
455962,KAUFMAN HEALTHCARE CENTER,TX,Kaufman,KAUFMAN,75142,32.5742,-96.315,Kaufman,48257,Kaufman
455963,CARTHAGE HEALTHCARE CENTER,TX,Panola,CARTHAGE,75633,32.1469,-94.341,Panola,48365,Panola
455965,TEXHOMA CHRISTIAN CARE CENTER INC,TX,Wichita,WICHITA FALLS,76306,33.9142,-98.537,Wichita,48485,Wichita
455968,Graham Oaks Care Center,TX,Young,Graham,76450,33.1021,-98.574,Young,48503,Young
455969,PATRIOT HEIGHTS HEALTH CARE CENTER,TX,Bexar,SAN ANTONIO,78240,29.5289,-98.585,Bexar,48029,Bexar
455970,RIVER VALLEY HEALTH & REHABILITATION CENTER,TX,Cooke,GAINESVILLE,76240,33.642,-97.153,Cooke,48097,Cooke
455974,ROCKPORT NURSING AND REHABILITATION CENTER,TX,Aransas,ROCKPORT,78382,28.0637,-97.063,Aransas,48007,Aransas
455983,ST. CATHERINE CENTER,TX,Mc Lennan,WACO,76712,31.5336,-97.243,Mclennan,48309,McLennan
455985,CLARKSVILLE NURSING HOME,TX,Red River,CLARKSVILLE,75426,33.6028,-95.046,Red River,48387,Red River
455986,HENDERSON HEALTH & REHABILITATION CENTER,TX,Rusk,HENDERSON,75652,32.1515,-94.813,Rusk,48401,Rusk
455989,Borger Healthcare Center,TX,Hutchinson,Borger,79007,35.6511,-101.39,Hutchinson,48233,Hutchinson
455994,DESOTO NURSING & REHABILITATION CENTER,TX,Dallas,DESOTO,75115,32.6076,-96.857,Dallas,48113,Dallas
455996,THE RENAISSANCE AT KESSLER PARK,TX,Dallas,DALLAS,75211,32.7545,-96.859,Dallas,48113,Dallas
455999,PORT LAVACA NURSING AND REHABILITATION CENTER,TX,Calhoun,PORT LAVACA,77979,28.6364,-96.632,Calhoun,48057,Calhoun
45603,MESA VIEW SENIOR LIVING,TX,Hemphill,CANADIAN,79014,35.8731,-100.34,Hemphill,48211,Hemphill
45631,SCHLEICHER COUNTY MEDICAL CENTER,TX,Schleicher,ELDORADO,76936,30.8699,-100.59,Schleicher,48413,Schleicher
45761,MCCAMEY CONVALESCENT CENTER,TX,Upton,MCCAMEY,79752,31.1134,-102.21,Upton,48461,Upton
45852,CROCKETT COUNTY CARE CENTER,TX,Crockett,OZONA,76943,30.711,-101.21,Crockett,48105,Crockett
45947,COLDWATER MANOR,TX,Sherman,STRATFORD,79084,36.3396,-102.06,Sherman,48421,Sherman
45949,ROLLING MEADOWS,TX,Wichita,WICHITA FALLS,76309,33.8824,-98.549,Wichita,48485,Wichita
675000,FOCUSED CARE AT BEECHNUT,TX,Harris,HOUSTON,77072,29.6889,-95.606,Harris,48201,Harris
675001,Avir at Woodlands,TX,Eastland,EASTLAND,76448,32.399,-98.848,Eastland,48133,Eastland
675002,RETAMA MANOR NURSING CENTER/SAN ANTONIO WEST,TX,Bexar,SAN ANTONIO,78237,29.4077,-98.548,Bexar,48029,Bexar
675004,MCKINNEY HEALTHCARE AND REHABILITATION CENTER,TX,Collin,MCKINNEY,75069,33.1614,-96.628,Collin,48085,Collin
675008,CHEROKEE ROSE NURSING AND REHABILITATION,TX,Somervell,GLEN ROSE,76043,32.2335,-97.75,Somervell,48425,Somervell
675009,COLEMAN HEALTHCARE CENTER,TX,Coleman,COLEMAN,76834,31.8066,-99.423,Coleman,48083,Coleman
675011,JACKSONVILLE HEALTHCARE CENTER,TX,Cherokee,JACKSONVILLE,75766,31.9487,-95.275,Cherokee,48073,Cherokee
675013,CROWELL NURSING CENTER,TX,Foard,CROWELL,79227,33.982,-99.728,Foard,48155,Foard
675014,AVIR AT HASKELL,TX,Haskell,HASKELL,79521,33.1578,-99.746,Haskell,48207,Haskell
675016,GREAT PLAINS NURSING AND REHABILITATION,TX,Moore,DUMAS,79029,35.8428,-101.97,Moore,48341,Moore
675017,CROSS COUNTRY HEALTHCARE CENTER,TX,Brown,BROWNWOOD,76801,31.6792,-98.963,Brown,48049,Brown
675018,RIVER OAKS HEALTH AND REHABILITATION CENTER,TX,Tarrant,FORT WORTH,76106,32.788,-97.381,Tarrant,48439,Tarrant
675019,APEX SECURE CARE BROWNFIELD,TX,Terry,BROWNFIELD,79316,33.1821,-102.26,Terry,48445,Terry
675020,GREENVILLE HEALTH & REHABILITATION CENTER,TX,Hunt,GREENVILLE,75402,33.1223,-96.126,Hunt,48231,Hunt
675021,ELECTRA HEALTHCARE CENTER,TX,Wichita,ELECTRA,76360,34.028,-98.925,Wichita,48485,Wichita
675025,WHITE ACRES WELLNESS & REHABILITATION,TX,El Paso,EL PASO,79912,31.845,-106.56,El Paso,48141,El Paso
675028,ESTATES HEALTHCARE AND REHABILITATION CENTER,TX,Tarrant,FORT WORTH,76134,32.6352,-97.325,Tarrant,48439,Tarrant
675030,LA FRONTERA NURSING & REHABILITATION,TX,Webb,LAREDO,78041,27.5673,-99.473,Webb,48479,Webb
675032,Cedar Hill Healthcare Center,TX,Dallas,Cedar Hill,75104,32.5872,-96.942,Dallas,48113,Dallas
675033,MESQUITE TREE NURSING CENTER,TX,Dallas,MESQUITE,75149,32.7548,-96.593,Dallas,48113,Dallas
675034,"Arbor Lake Nursing & Rehabilitation, LLC",TX,Tarrant,Fort Worth,76104,32.7385,-97.334,Tarrant,48439,Tarrant
675035,Avir at Burkburnett,TX,Wichita,BURKBURNETT,76354,34.1019,-98.573,Wichita,48485,Wichita
675037,AVIR AT PITTSBURG,TX,Camp,PITTSBURG,75686,32.9916,-94.957,Camp,48063,Camp
675038,CLYDE NURSING CENTER,TX,Callahan,CLYDE,79510,32.3948,-99.49,Callahan,48059,Callahan
675042,SEYMOUR REHABILITATION AND HEALTHCARE,TX,Baylor,SEYMOUR,76380,33.5987,-99.276,Baylor,48023,Baylor
675044,Colonial Manor Advanced Rehab & Healthcare,TX,Hidalgo,Pharr,78577,26.2424,-98.191,Hidalgo,48215,Hidalgo
675046,Rosenberg Health & Rehabilitation Center,TX,Fort Bend,Rosenberg,77471,29.5522,-95.788,Fort Bend,48157,Fort Bend
675049,CORONADO HEALTHCARE CENTER,TX,Gray,PAMPA,79065,35.5477,-100.98,Gray,48179,Gray
675051,LAKEVIEW REHABILITATION & HEALTHCARE CENTER,TX,Wood,WINNSBORO,75494,32.9483,-95.288,Wood,48499,Wood
675052,Bay Ridge Healthcare Center,TX,Harris,La Porte,77571,29.6661,-95.015,Harris,48201,Harris
675053,Chisolm Trail Nursing and Rehabilitation Center,TX,Caldwell,Lockhart,78644,29.8841,-97.684,Caldwell,48055,Caldwell
675055,AVIR AT CHILDRESS,TX,Childress,CHILDRESS,79201,34.4346,-100.21,Childress,48075,Childress
675057,BALCH SPRINGS NURSING HOME,TX,Dallas,BALCH SPRINGS,75180,32.7119,-96.614,Dallas,48113,Dallas
675058,Homeplace Manor Healthcare Center,TX,Jones,HAMLIN,79520,32.879,-100.13,Jones,48253,Jones
675061,MUNDAY NURSING CENTER,TX,Knox,MUNDAY,76371,33.4526,-99.626,Knox,48275,Knox
675065,CASS VALLEY HEALTHCARE CENTER,TX,Leon,CENTERVILLE,75833,31.2516,-95.973,Leon,48289,Leon
675066,HONEY GROVE NURSING CENTER,TX,Fannin,HONEY GROVE,75446,33.5837,-95.901,Fannin,48147,Fannin
675067,Gainesville Convalescent Center,TX,Cooke,Gainesville,76240,33.6363,-97.122,Cooke,48097,Cooke
675071,YORKTOWN NURSING AND REHABILITATION CENTER,TX,De Witt,YORKTOWN,78164,28.978,-97.513,Dewitt,48123,DeWitt
675075,DIVERSICARE OF LULING,TX,Caldwell,LULING,78648,29.6728,-97.632,Caldwell,48055,Caldwell
675076,LLANO NURSING AND REHABILITATION CENTER,TX,Llano,LLANO,78643,30.7512,-98.684,Llano,48299,Llano
675078,Oasis at Galleria,TX,Harris,Houston,77063,29.7364,-95.505,Harris,48201,Harris
675079,Focused Care at Allenbrook,TX,Harris,Baytown,77521,29.7665,-94.972,Harris,48201,Harris
675080,THE VOSSWOOD NURSING CENTER,TX,Harris,HOUSTON,77057,29.7602,-95.501,Harris,48201,Harris
675081,GOLDEN ACRES LIVING AND REHABILITATION CENTER,TX,Dallas,DALLAS,75228,32.8428,-96.669,Dallas,48113,Dallas
675084,Trinity Nursing & Rehab of Granbury,TX,Hood,GRANBURY,76048,32.4517,-97.782,Hood,48221,Hood
675085,Paradigm at Woodwind Lakes,TX,Harris,Houston,77040,29.8778,-95.537,Harris,48201,Harris
675089,FOCUSED CARE AT SHERMAN,TX,Grayson,SHERMAN,75090,33.6279,-96.617,Grayson,48181,Grayson
675093,LAKESIDE REHABILITATION AND CARE CENTER,TX,Lubbock,LUBBOCK,79410,33.5726,-101.9,Lubbock,48303,Lubbock
675095,HALLETTSVILLE NURSING AND REHABILITATION,TX,Lavaca,HALLETTSVILLE,77964,29.4383,-96.958,Lavaca,48285,Lavaca
675096,Avir at Hillsboro,TX,Hill,HILLSBORO,76645,32.0155,-97.105,Hill,48217,Hill
675098,FARWELL CARE AND REHABILITATION CENTER,TX,Parmer,FARWELL,79325,34.3861,-103.04,Parmer,48369,Parmer
675101,Avir at Giddings,TX,Lee,Giddings,78942,30.1944,-96.935,Lee,48287,Lee
675103,RENAISSANCE REHABILITATION AND HEALTHCARE CENTER,TX,Ellis,ITALY,76651,32.1803,-96.896,Ellis,48139,Ellis
675104,Live Oak Nursing and Rehabilitation Center,TX,Live Oak,George West,78022,28.3367,-98.121,Live Oak,48297,Live Oak
675105,Country View Nursing and Rehabilitation,TX,Kaufman,Terrell,75160,32.7569,-96.265,Kaufman,48257,Kaufman
675106,GRACE POINTE WELLNESS CENTER,TX,El Paso,EL PASO,79902,31.7735,-106.5,El Paso,48141,El Paso
675109,RICHARDSON NURSING AND REHABILITATION,TX,Dallas,RICHARDSON,75080,32.9651,-96.738,Dallas,48113,Dallas
675110,CUERO NURSING AND REHABILITATION CENTER,TX,De Witt,CUERO,77954,29.0877,-97.269,Dewitt,48123,DeWitt
675111,Heritage Gardens Rehabilitation and Healthcare,TX,Dallas,Carrollton,75006,32.9746,-96.907,Dallas,48113,Dallas
675112,Coral Rehabilitation and Nursing of Arlington,TX,Tarrant,Arlington,76011,32.7528,-97.111,Tarrant,48439,Tarrant
675113,THE PARK IN PLANO,TX,Collin,PLANO,75075,33.0394,-96.71,Collin,48085,Collin
675117,RUNNINGWATER DRAW CARE CENTER INC,TX,Lamb,OLTON,79064,34.1759,-102.14,Lamb,48279,Lamb
675118,Brush Country Nursing and Rehabilitation,TX,Travis,Austin,78749,30.2253,-97.841,Travis,48453,Travis
675120,WOODVILLE HEALTH AND REHABILITATION CENTER,TX,Tyler,WOODVILLE,75979,30.7753,-94.43,Tyler,48457,Tyler
675124,AVIR AT GONZALES,TX,Gonzales,GONZALES,78629,29.5101,-97.452,Gonzales,48177,Gonzales
675127,FOCUSED CARE AT HUMBLE,TX,Harris,HUMBLE,77338,29.9928,-95.258,Harris,48201,Harris
675128,Midwestern Healthcare Center,TX,Wichita,Wichita Falls,76302,33.8761,-98.482,Wichita,48485,Wichita
675132,Bremond Nursing and Rehabilitation Center,TX,Robertson,Bremond,76629,31.1674,-96.675,Robertson,48395,Robertson
675133,HIGHLAND PINES NURSING HOME,TX,Gregg,LONGVIEW,75601,32.5088,-94.731,Gregg,48183,Gregg
675134,WHISPERING OAKS REHAB & NURSING,TX,De Witt,CUERO,77954,29.1131,-97.287,Dewitt,48123,DeWitt
675136,DENTON REHABILITATION AND NURSING CENTER,TX,Denton,DENTON,76210,33.1456,-97.09,Denton,48121,Denton
675138,INSPIRATION HILLS REHABILITATION CENTER,TX,Bexar,SAN ANTONIO,78228,29.4723,-98.576,Bexar,48029,Bexar
675139,Windsor Healthcare Residence,TX,Limestone,Groesbeck,76642,31.5247,-96.543,Limestone,48293,Limestone
675140,FOCUSED CARE AT HAMILTON,TX,Hamilton,HAMILTON,76531,31.7003,-98.105,Hamilton,48193,Hamilton
675141,Crestview Healthcare Residence,TX,Mc Lennan,Waco,76708,31.5941,-97.175,Mclennan,48309,McLennan
675142,BRIARCLIFF HEALTH CENTER,TX,Smith,TYLER,75701,32.3127,-95.321,Smith,48423,Smith
675144,BURLESON NURSING AND REHABILITATION CENTER,TX,Johnson,BURLESON,76028,32.5342,-97.332,Johnson,48251,Johnson
675145,BUENA VIDA NURSING AND REHAB ODESSA,TX,Ector,ODESSA,79762,31.8887,-102.35,Ector,48135,Ector
675150,BLUEBONNET REHAB AT ENNIS,TX,Ellis,ENNIS,75119,32.3114,-96.615,Ellis,48139,Ellis
675151,MEADOWBROOK CARE CENTER,TX,Grayson,VAN ALSTYNE,75495,33.423,-96.584,Grayson,48181,Grayson
675152,Dogwood Trails Manor,TX,Tyler,Woodville,75979,30.7796,-94.401,Tyler,48457,Tyler
675153,HERITAGE HOUSE AT KELLER REHAB & NURSING,TX,Tarrant,KELLER,76248,32.9114,-97.253,Tarrant,48439,Tarrant
675159,SOUTHBROOKE MANOR NURSING AND REHABILITATION CENTE,TX,Jackson,EDNA,77957,28.9646,-96.674,Jackson,48239,Jackson
675162,Briarcliff Nursing and Rehabilitation Center,TX,Hidalgo,McAllen,78501,26.2365,-98.257,Hidalgo,48215,Hidalgo
675169,AVIR AT FREDERICKSBURG,TX,Gillespie,FREDERICKSBURG,78624,30.2604,-98.878,Gillespie,48171,Gillespie
675170,La Paloma Nursing Center,TX,Duval,San Diego,78384,27.7483,-98.246,Duval,48131,Duval
675171,Crestway Nursing & Rehabilitation,TX,Bexar,SAN ANTONIO,78239,29.5217,-98.347,Bexar,48029,Bexar
675172,CASCADES AT PORT ARTHUR,TX,Jefferson,PORT ARTHUR,77642,29.9385,-93.964,Jefferson,48245,Jefferson
675175,PARK MANOR OF MCKINNEY,TX,Collin,MCKINNEY,75069,33.2124,-96.629,Collin,48085,Collin
675177,PINE TREE LODGE NURSING CENTER,TX,Gregg,LONGVIEW,75604,32.5352,-94.808,Gregg,48183,Gregg
675181,CARRIAGE HOUSE MANOR,TX,Hopkins,SULPHUR SPRINGS,75482,33.1563,-95.597,Hopkins,48223,Hopkins
675182,BROWNFIELD REHABILITATION AND CARE CENTER,TX,Terry,BROWNFIELD,79316,33.1749,-102.27,Terry,48445,Terry
675183,TWIN OAKS HEALTH AND REHABILITATION CENTER,TX,Cherokee,JACKSONVILLE,75766,31.9784,-95.276,Cherokee,48073,Cherokee
675185,LONGMEADOW HEALTHCARE CENTER,TX,Denton,JUSTIN,76247,33.0853,-97.287,Denton,48121,Denton
675196,NORTH PARK HEALTH AND REHABILITATION CENTER,TX,Collin,MCKINNEY,75069,33.2164,-96.614,Collin,48085,Collin
675201,HILLSIDE MEDICAL LODGE,TX,Coryell,GATESVILLE,76528,31.4211,-97.715,Coryell,48099,Coryell
675205,THE ATRIUM REHABILITATION CENTER,TX,Bexar,SAN ANTONIO,78229,29.5073,-98.571,Bexar,48029,Bexar
675210,HERITAGE HOUSE NURSING AND REHABILITATION,TX,Falls,ROSEBUD,76570,31.0738,-96.97,Falls,48145,Falls
675212,The Homestead of Denison,TX,Grayson,Denison,75020,33.771,-96.548,Grayson,48181,Grayson
675214,SOLIDAGO HEALTH AND REHABILITATION,TX,Galveston,TEXAS CITY,77590,29.4016,-94.931,Galveston,48167,Galveston
675217,ELKHART OAKS CARE CENTER,TX,Anderson,ELKHART,75839,31.62,-95.575,Anderson,48001,Anderson
675220,AVALON PLACE KIRBYVILLE,TX,Jasper,KIRBYVILLE,75956,30.6673,-93.906,Jasper,48241,Jasper
675222,SEABREEZE NURSING AND REHABILITATION,TX,Galveston,TEXAS CITY,77590,29.3923,-94.985,Galveston,48167,Galveston
675226,STEVENS NURSING AND REHABILITATION CENTER OF HALLE,TX,Lavaca,HALLETTSVILLE,77964,29.4455,-96.95,Lavaca,48285,Lavaca
675229,Woodland Manor Nursing and Rehabilitation,TX,Montgomery,Conroe,77304,30.3197,-95.485,Montgomery,48339,Montgomery
675230,PINE GROVE NURSING CENTER,TX,Shelby,CENTER,75935,31.7951,-94.164,Shelby,48419,Shelby
675231,Cascades at Jacinto Rehab LP,TX,Harris,Houston,77029,29.7662,-95.234,Harris,48201,Harris
675233,Harmony Care at Golfcrest,TX,Harris,Houston,77087,29.6969,-95.316,Harris,48201,Harris
675234,WOODLAKE NURSING CENTER,TX,Brazoria,CLUTE,77531,29.0154,-95.396,Brazoria,48039,Brazoria
675238,TRINITY TERRACE,TX,Tarrant,FORT WORTH,76102,32.749,-97.342,Tarrant,48439,Tarrant
675241,AVIR AT JEFFERSON,TX,Marion,JEFFERSON,75657,32.7727,-94.359,Marion,48315,Marion
675251,"Meadows of Corsicana, LLC",TX,Navarro,CORSICANA,75110,32.0723,-96.497,Navarro,48349,Navarro
675253,AZALEA TRAIL NURSING AND REHABILITATION CENTER,TX,Van Zandt,GRAND SALINE,75140,32.6773,-95.706,Van Zandt,48467,Van Zandt
675254,Cascades at Galveston,TX,Galveston,Galveston,77554,29.2504,-94.871,Galveston,48167,Galveston
675259,Avir at Cisco,TX,Eastland,CISCO,76437,32.3762,-98.992,Eastland,48133,Eastland
675267,GREENBRIER NURSING & REHABILITATION CENTER OF TYLE,TX,Smith,TYLER,75702,32.3523,-95.34,Smith,48423,Smith
675268,LAREDO MEDICAL CENTER,TX,Webb,LAREDO,78044,27.5306,-99.478,Webb,48479,Webb
675270,Avir at Kennedale,TX,Tarrant,Kennedale,76060,32.6447,-97.216,Tarrant,48439,Tarrant
675271,SEVEN OAKS NURSING & REHABILITATION,TX,Fannin,BONHAM,75418,33.5875,-96.169,Fannin,48147,Fannin
675272,WILLOWBEND NURSING AND REHABILITATION CENTER,TX,Dallas,MESQUITE,75150,32.7931,-96.619,Dallas,48113,Dallas
675274,WILLIS NURSING AND REHABILITATION LP,TX,Montgomery,WILLIS,77378,30.4341,-95.486,Montgomery,48339,Montgomery
675277,CARE INN OF LA GRANGE,TX,Fayette,LA GRANGE,78945,29.9078,-96.881,Fayette,48149,Fayette
675279,VILLA HAVEN HEALTH AND REHABILITATION CENTER,TX,Stephens,BRECKENRIDGE,76424,32.7536,-98.883,Stephens,48429,Stephens
675281,COTTONWOOD CREEK HEALTHCARE COMMUNITY,TX,Dallas,RICHARDSON,75080,32.9646,-96.748,Dallas,48113,Dallas
675282,AMARILLO MEDICAL LODGE,TX,Potter,AMARILLO,79106,35.2076,-101.9,Potter,48375,Potter
675289,Avir at Azalea Heights,TX,Smith,TYLER,75701,32.3108,-95.319,Smith,48423,Smith
675291,CROSBYTON NURSING AND REHABILITATION CENTER,TX,Crosby,CROSBYTON,79322,33.6618,-101.24,Crosby,48107,Crosby
675292,COTTONWOOD NURSING AND REHABILITATION,TX,Denton,DENTON,76201,33.2341,-97.137,Denton,48121,Denton
675293,FOCUSED CARE AT LINDEN,TX,Cass,LINDEN,75563,33.0113,-94.377,Cass,48067,Cass
675295,LYTLE NURSING HOME,TX,Atascosa,LYTLE,78052,29.2303,-98.801,Atascosa,48013,Atascosa
675305,PLEASANT VALLEY HEALTHCARE AND REHABILITATION CENT,TX,Dallas,GARLAND,75040,32.9347,-96.608,Dallas,48113,Dallas
675306,BLUEBONNET NURSING AND REHABILITATION,TX,Karnes,KARNES CITY,78118,28.8307,-98.022,Karnes,48255,Karnes
675307,The Manor Healthcare Residence,TX,Limestone,Mexia,76667,31.6862,-96.494,Limestone,48293,Limestone
675309,Windsor Nursing and Rehabilitation Center of Alice,TX,Jim Wells,Alice,78332,27.7596,-98.052,Jim Wells,48249,Jim Wells
675311,FAIRVIEW HEALTHCARE RESIDENCE,TX,Freestone,FAIRFIELD,75840,31.7228,-96.151,Freestone,48161,Freestone
675312,PALMA REAL,TX,San Patricio,MATHIS,78368,28.0933,-97.814,San Patricio,48409,San Patricio
675317,"Deerings Nursing and Rehabilitation, LP",TX,Ector,Odessa,79763,31.8354,-102.41,Ector,48135,Ector
675319,DELEON NURSING AND REHABILITATION,TX,Comanche,DE LEON,76444,32.1159,-98.528,Comanche,48093,Comanche
675320,AVIR AT BRADBURN,TX,Van Zandt,GRAND SALINE,75140,32.6774,-95.701,Van Zandt,48467,Van Zandt
675321,Paradigm at Faith Memorial,TX,Harris,Pasadena,77502,29.6836,-95.202,Harris,48201,Harris
675323,Baywind Village Skilled Nuring & Rehab,TX,Galveston,League City,77573,29.5211,-95.082,Galveston,48167,Galveston
675326,CENTRAL TEXAS NURSING & REHABILITATION,TX,Runnels,BALLINGER,76821,31.7496,-99.964,Runnels,48399,Runnels
675327,PAMPA NURSING CENTER,TX,Gray,PAMPA,79065,35.5477,-100.98,Gray,48179,Gray
675329,Levelland Nursing & Rehabilitation Center,TX,Hockley,Levelland,79336,33.5914,-102.39,Hockley,48219,Hockley
675330,THE OAKS AT RADFORD HILLS HEALTHCARE CENTER,TX,Taylor,ABILENE,79601,32.4507,-99.713,Taylor,48441,Taylor
675336,Kirkland Court Health and Rehabilitation Center,TX,Potter,Amarillo,79106,35.1939,-101.91,Potter,48375,Potter
675338,MILL CREEK,TX,Hardin,SILSBEE,77656,30.3489,-94.191,Hardin,48199,Hardin
675344,Paradigm at Sweeny,TX,Brazoria,Sweeny,77480,29.0466,-95.689,Brazoria,48039,Brazoria
675346,HERITAGE OAKS NURSING AND REHABILITATION CENTER,TX,Lubbock,LUBBOCK,79413,33.5469,-101.87,Lubbock,48303,Lubbock
675350,WILLOWCREEK REHAB AND NURSING,TX,Taylor,ABILENE,79605,32.4439,-99.785,Taylor,48441,Taylor
675352,BRENTWOOD PLACE THREE,TX,Dallas,DALLAS,75227,32.912,-96.875,Dallas,48113,Dallas
675356,WINDSOR NURSING AND REHABILITATION CENTER OF BASTR,TX,Bastrop,BASTROP,78602,30.1089,-97.329,Bastrop,48021,Bastrop
675358,COLONIAL PINES HEALTHCARE CENTER,TX,San Augustine,SAN AUGUSTINE,75972,31.5186,-94.153,San Augustine,48405,San Augustine
675360,Woodland Springs Nursing Center,TX,Mc Lennan,Waco,76704,31.5707,-97.132,Mclennan,48309,McLennan
675361,WHARTON NURSING AND REHABILITATION CENTER,TX,Wharton,WHARTON,77488,29.3196,-96.084,Wharton,48481,Wharton
675363,ORCHARD PARK POST ACUTE NURSING AND REHABILITATION,TX,Hidalgo,WESLACO,78596,26.1684,-97.975,Hidalgo,48215,Hidalgo
675364,HOMESTEAD NURSING AND REHABILITATION OF BAIRD,TX,Callahan,BAIRD,79504,32.3963,-99.392,Callahan,48059,Callahan
675365,Pasadena Post Acute,TX,Harris,Pasadena,77504,29.6586,-95.184,Harris,48201,Harris
675367,GREENVILLE GARDENS,TX,Hunt,GREENVILLE,75401,33.1309,-96.116,Hunt,48231,Hunt
675369,GRANDVIEW NURSING AND REHABILITATION CENTER,TX,Johnson,GRANDVIEW,76050,32.2708,-97.185,Johnson,48251,Johnson
675370,THE METHODIST HOSPITAL SNF,TX,Harris,HOUSTON,77030,29.7113,-95.4,Harris,48201,Harris
675371,RIVERVIEW NURSING & REHABILITATION,TX,Kendall,BOERNE,78006,29.788,-98.717,Kendall,48259,Kendall
675372,LA BAHIA NURSING AND REHABILITATION,TX,Goliad,GOLIAD,77963,28.6796,-97.39,Goliad,48175,Goliad
675373,WHISPERING SPRINGS REHABILITATION AND HEALTHCARE C,TX,Dimmit,CARRIZO SPRINGS,78834,28.5185,-99.863,Dimmit,48127,Dimmit
675374,Avir at Irving,TX,Dallas,IRVING,75061,32.8191,-96.942,Dallas,48113,Dallas
675377,BANGS NURSING AND REHABILITATION,TX,Brown,BANGS,76823,31.7138,-99.121,Brown,48049,Brown
675379,EVERGREEN MANOR,TX,Gregg,LONGVIEW,75601,32.53,-94.743,Gregg,48183,Gregg
675380,WINDSOR NURSING AND REHABILITATION CENTER OF SEGUI,TX,Guadalupe,SEGUIN,78155,29.5638,-97.947,Guadalupe,48187,Guadalupe
675386,Whispering Pines Lodge,TX,Gregg,Longview,75601,32.5179,-94.708,Gregg,48183,Gregg
675387,PANOLA COUNTY NURSING & REHABILITATION,TX,Panola,CARTHAGE,75633,32.1673,-94.347,Panola,48365,Panola
675388,HILLVIEW NURSING & REHABILITATION,TX,Mills,GOLDTHWAITE,76844,31.452,-98.563,Mills,48333,Mills
675390,SUNFLOWER PARK HEALTH CARE,TX,Kaufman,KAUFMAN,75142,32.5874,-96.289,Kaufman,48257,Kaufman
675391,PINE ARBOR,TX,Hardin,SILSBEE,77656,30.3514,-94.151,Hardin,48199,Hardin
675394,OAKWOOD MANOR NURSING HOME,TX,Orange,VIDOR,77662,30.1234,-94.012,Orange,48361,Orange
675395,VAL VERDE NURSING AND REHABILITATION CENTER,TX,Val Verde,DEL RIO,78840,29.3673,-100.89,Val Verde,48465,Val Verde
675396,LAREDO SOUTH NURSING AND REHABILITATION CENTER,TX,Webb,LAREDO,78040,27.5112,-99.486,Webb,48479,Webb
675398,FOCUSED CARE OF CENTER,TX,Shelby,CENTER,75935,31.7996,-94.191,Shelby,48419,Shelby
675399,Navasota Nursing & Rehabilitation,TX,Grimes,Navasota,77868,30.3946,-96.077,Grimes,48185,Grimes
675402,Rockwall Nursing Care Center,TX,Rockwall,Rockwall,75087,32.927,-96.459,Rockwall,48397,Rockwall
675406,GOLDEN YEARS NURSING AND REHABILITATION CENTER,TX,Falls,MARLIN,76661,31.3086,-96.894,Falls,48145,Falls
675407,Ralls Nursing Home,TX,Crosby,Ralls,79357,33.682,-101.37,Crosby,48107,Crosby
675408,Avir at Overton,TX,Rusk,OVERTON,75684,32.2796,-94.968,Rusk,48401,Rusk
675409,WINDSOR MISSION OAKS,TX,Bexar,SAN ANTONIO,78214,29.3681,-98.481,Bexar,48029,Bexar
675414,WINDSOR NURSING AND REHABILITATION CENTER OF EDINB,TX,Hidalgo,EDINBURG,78539,26.2878,-98.165,Hidalgo,48215,Hidalgo
675415,WINDSOR LAS PALMAS NURSING AND REHABILITATION CENT,TX,Hidalgo,MCALLEN,78503,26.1848,-98.209,Hidalgo,48215,Hidalgo
675417,Fair Park Health & Rehabilitation Center,TX,Dallas,Dallas,75215,32.7692,-96.768,Dallas,48113,Dallas
675418,The Manor at Seagoville,TX,Dallas,Seagoville,75159,32.6594,-96.574,Dallas,48113,Dallas
675420,PARADIGM AT THE BRAZOS,TX,Fort Bend,RICHMOND,77469,29.5853,-95.782,Fort Bend,48157,Fort Bend
675423,Ashford Gardens,TX,Harris,Houston,77076,29.8664,-95.398,Harris,48201,Harris
675424,ADVANCED REHABILITATION AND HEALTHCARE OF ATHENS,TX,Henderson,ATHENS,75751,32.1627,-95.822,Henderson,48213,Henderson
675428,PLEASANTON SOUTH NURSING AND REHABILITATION,TX,Atascosa,PLEASANTON,78064,28.9566,-98.493,Atascosa,48013,Atascosa
675431,RED OAK HEALTH AND REHABILITATION CENTER,TX,Ellis,RED OAK,75154,32.5341,-96.822,Ellis,48139,Ellis
675433,FOCUSED CARE AT HUNTSVILLE,TX,Walker,HUNTSVILLE,77340,30.7021,-95.554,Walker,48471,Walker
675434,SILVER PINES NURSING AND REHABILITATION CENTER,TX,Bastrop,BASTROP,78602,30.1107,-97.333,Bastrop,48021,Bastrop
675437,ADVANCED REHABILITATION & HEALTHCARE OF LIVE OAK,TX,Bexar,LIVE OAK,78233,29.5524,-98.326,Bexar,48029,Bexar
675438,LAKESHORE VILLAGE NURSING AND REHABILITATION,TX,Mc Lennan,WACO,76708,31.5921,-97.186,Mclennan,48309,McLennan
675439,MULLICAN CARE CENTER,TX,Fannin,SAVOY,75479,33.599,-96.365,Fannin,48147,Fannin
675440,South Dallas Nursing & Rehabilitation,TX,Dallas,Dallas,75215,32.912,-96.875,Dallas,48113,Dallas
675441,RENAISSANCE CARE CENTER,TX,Cooke,GAINESVILLE,76240,33.6218,-97.121,Cooke,48097,Cooke
675443,PRAIRIE ACRES,TX,Parmer,FRIONA,79035,34.6458,-102.72,Parmer,48369,Parmer
675444,REUNION PLAZA SENIOR CARE AND REHABILITATION CENTE,TX,Bowie,TEXARKANA,75503,33.4717,-94.061,Bowie,48037,Bowie
675445,Oak Manor Nursing Center,TX,Fayette,Flatonia,78941,29.6936,-97.106,Fayette,48149,Fayette
675446,PRAIRIE MEADOWS REHABILITATION AND HEALTHCARE CENT,TX,Wilson,FLORESVILLE,78114,29.1399,-98.148,Wilson,48493,Wilson
675447,THE HIGHLANDS GUEST CARE CENTER,TX,Dallas,DALLAS,75243,32.9092,-96.748,Dallas,48113,Dallas
675452,Avir at Converse,TX,Bexar,CONVERSE,78109,29.533,-98.338,Bexar,48029,Bexar
675453,Collinwood Nursing and Rehabilitation,TX,Collin,PLANO,75074,33.0151,-96.674,Collin,48085,Collin
675454,WEST OAKS NURSING & REHAB CENTER,TX,Harris,HOUSTON,77082,29.7252,-95.655,Harris,48201,Harris
675458,Parkview Nursing and Rehabilitation Center,TX,Caldwell,Lockhart,78644,29.8684,-97.669,Caldwell,48055,Caldwell
675460,PARK HIGHLANDS NURSING & REHABILITATION CENTER,TX,Henderson,ATHENS,75751,32.1911,-95.848,Henderson,48213,Henderson
675462,PARKVIEW NURSING AND REHABILITATION CENTER,TX,Howard,BIG SPRING,79720,32.2177,-101.49,Howard,48227,Howard
675468,HICO NURSING AND REHABILITATION,TX,Hamilton,HICO,76457,31.9817,-98.038,Hamilton,48193,Hamilton
675469,HARMONY CARE AT FLORESVILLE,TX,Wilson,FLORESVILLE,78114,29.1321,-98.151,Wilson,48493,Wilson
675471,North Star Ranch Rehabilitation and Health Care Ce,TX,Fannin,Bonham,75418,33.5783,-96.186,Fannin,48147,Fannin
675475,WINDSOR NURSING AND REHABILITATION CENTER OF RAYMO,TX,Willacy,RAYMONDVILLE,78580,26.4748,-97.769,Willacy,48489,Willacy
675478,PRAIRIE HOUSE LIVING CENTER,TX,Hale,PLAINVIEW,79072,34.1948,-101.75,Hale,48189,Hale
675479,Franklin Heights Nursing & Rehabilitation,TX,El Paso,El Paso,79912,31.8322,-106.55,El Paso,48141,El Paso
675483,IOWA PARK HEALTHCARE CENTER,TX,Wichita,IOWA PARK,76367,33.9609,-98.68,Wichita,48485,Wichita
675484,WOODLAND PARK NURSING & REHAB,TX,San Jacinto,SHEPHERD,77371,30.48,-94.991,San Jacinto,48407,San Jacinto
675489,DEVINE HEALTH & REHABILITATION,TX,Medina,DEVINE,78016,29.1531,-98.891,Medina,48325,Medina
675490,GOLDEN VILLA,TX,Cass,ATLANTA,75551,33.1042,-94.166,Cass,48067,Cass
675493,Highland Park Care Center,TX,Harris,Houston,77022,29.8409,-95.376,Harris,48201,Harris
675494,Lone Star Ranch Rehabilitaion and Healthcare Cente,TX,Kleberg,Kingsville,78363,27.4911,-97.871,Kleberg,48273,Kleberg
675495,LAUREL COURT,TX,Brazoria,ALVIN,77511,29.3846,-95.234,Brazoria,48039,Brazoria
675496,SLATON CARE CENTER,TX,Lubbock,SLATON,79364,33.4337,-101.66,Lubbock,48303,Lubbock
675498,HILLSIDE HEIGHTS REHABILITATION SUITES,TX,Randall,AMARILLO,79119,35.1468,-101.94,Randall,48381,Randall
675501,LEGACY WEST REHABILITATION AND HEALTHCARE,TX,Navarro,CORSICANA,75110,32.0804,-96.502,Navarro,48349,Navarro
675502,PLEASANTON NORTH NURSING AND REHABILITATION,TX,Atascosa,PLEASANTON,78064,28.9589,-98.488,Atascosa,48013,Atascosa
675503,BEACON HILL,TX,Grayson,DENISON,75020,33.7227,-96.569,Grayson,48181,Grayson
675509,Parklane West Healthcare Center,TX,Bexar,San Antonio,78209,29.4628,-98.447,Bexar,48029,Bexar
675513,HERITAGE PLACE OF DECATUR,TX,Wise,DECATUR,76234,33.2396,-97.592,Wise,48497,Wise
675518,THE HILLTOP ON MAIN,TX,Bosque,MERIDIAN,76665,31.9335,-97.664,Bosque,48035,Bosque
675519,LARKSPUR,TX,Angelina,LUFKIN,75904,31.3433,-94.764,Angelina,48005,Angelina
675522,AVIR AT MONAHANS,TX,Ward,MONAHANS,79756,31.5774,-102.9,Ward,48475,Ward
675525,Willow Park Rehabilitation Health Care Center,TX,Bosque,Clifton,76634,31.7915,-97.589,Bosque,48035,Bosque
675527,Whisperwood Nursing & Rehabilitation Center,TX,Lubbock,Lubbock,79416,33.5923,-101.93,Lubbock,48303,Lubbock
675532,UVALDE HEALTHCARE AND REHABILITATION CENTER,TX,Uvalde,UVALDE,78801,29.2153,-99.794,Uvalde,48463,Uvalde
675533,JUNIPER VILLAGE AT SPICEWOOD SUMMIT,TX,Travis,AUSTIN,78759,30.373,-97.759,Travis,48453,Travis
675534,WHEELER NURSING & REHABILITATION,TX,Wheeler,WHEELER,79096,35.4394,-100.28,Wheeler,48483,Wheeler
675536,HILL COUNTRY HEIGHTS,TX,Coryell,COPPERAS COVE,76522,31.1242,-97.893,Coryell,48099,Coryell
675537,BROWNWOOD NURSING AND REHABILITATION,TX,Brown,BROWNWOOD,76801,31.6774,-98.995,Brown,48049,Brown
675538,Sugar Land Health Care Center,TX,Fort Bend,Sugar Land,77478,29.6168,-95.637,Fort Bend,48157,Fort Bend
675539,THE BRADFORD AT BROOKSIDE,TX,Polk,LIVINGSTON,77351,30.7335,-94.943,Polk,48373,Polk
675540,Liberty Health Care Center,TX,Liberty,Liberty,77575,30.0672,-94.798,Liberty,48291,Liberty
675541,Cascades at Senior Rehab,TX,Jefferson,Port Arthur,77642,29.9564,-93.984,Jefferson,48245,Jefferson
675542,JUNIPER VILLAGE AT LINCOLN HEIGHTS,TX,Bexar,SAN ANTONIO,78209,29.4977,-98.473,Bexar,48029,Bexar
675543,West Janisch Health Care Center,TX,Harris,Houston,77018,29.8373,-95.409,Harris,48201,Harris
675546,Trinity Care Center,TX,Williamson,Round Rock,78664,30.5115,-97.668,Williamson,48491,Williamson
675550,PECAN TREE REHAB AND HEALTHCARE CENTER,TX,Cooke,GAINESVILLE,76240,33.6251,-97.122,Cooke,48097,Cooke
675553,CARADAY OF QUITMAN,TX,Wood,QUITMAN,75783,32.7958,-95.432,Wood,48499,Wood
675554,Grace Care Center of Nocona,TX,Montague,Nocona,76255,33.7793,-97.732,Montague,48337,Montague
675556,CYPRESS WOODS CARE CENTER,TX,Brazoria,ANGLETON,77515,29.1681,-95.425,Brazoria,48039,Brazoria
675557,OASIS AT PEARLAND,TX,Brazoria,PEARLAND,77581,29.5601,-95.277,Brazoria,48039,Brazoria
675560,LAKE VILLAGE NURSING AND REHABILITATION CENTER,TX,Denton,LEWISVILLE,75057,33.0717,-97.013,Denton,48121,Denton
675561,HERITAGE PLAZA NURSING CENTER,TX,Bowie,TEXARKANA,75501,33.4687,-94.047,Bowie,48037,Bowie
675563,Colonial Nursing & Rehabilitation Center,TX,Smith,Lindale,75771,32.5105,-95.404,Smith,48423,Smith
675564,HARMONY CARE AT GIDDINGS,TX,Lee,GIDDINGS,78942,30.1937,-96.937,Lee,48287,Lee
675565,PARKWOOD HEALTHCARE COMMUNITY,TX,Tarrant,BEDFORD,76022,32.8313,-97.126,Tarrant,48439,Tarrant
675568,OASIS NURSING & REHABILITATION CENTER,TX,El Paso,EL PASO,79907,31.7041,-106.32,El Paso,48141,El Paso
675572,Glen Rose Nursing and Rehab Center,TX,Somervell,Glen Rose,76043,32.2405,-97.749,Somervell,48425,Somervell
675579,BEACON HARBOR HEALTHCARE AND REHABILITATION,TX,Rockwall,ROCKWALL,75087,32.9193,-96.507,Rockwall,48397,Rockwall
675581,THE VILLAGE AT HERITAGE OAKS,TX,Navarro,CORSICANA,75110,32.0822,-96.498,Navarro,48349,Navarro
675587,REGENCY MANOR HEALTHCARE CENTER,TX,Bell,TEMPLE,76504,31.1066,-97.373,Bell,48027,Bell
675592,C C YOUNG MEMORIAL HOME,TX,Dallas,DALLAS,75214,32.8544,-96.731,Dallas,48113,Dallas
675593,Wisteria Place,TX,Taylor,Abilene,79605,32.4119,-99.765,Taylor,48441,Taylor
675595,HARMONY CARE AT BEAUMONT,TX,Jefferson,BEAUMONT,77703,30.1043,-94.127,Jefferson,48245,Jefferson
675596,BARTON VALLEY REHABILITATION AND HEALTHCARE CENTE,TX,Travis,AUSTIN,78735,30.2353,-97.806,Travis,48453,Travis
675597,CRESTWOOD HEALTH AND REHABILITATION CENTER,TX,Van Zandt,WILLS POINT,75169,32.6998,-95.993,Van Zandt,48467,Van Zandt
675599,ROBERT LEE CARE CENTER,TX,Coke,ROBERT LEE,76945,31.8957,-100.49,Coke,48081,Coke
675602,Focused Care of Gilmer,TX,Upshur,Gilmer,75644,32.7306,-94.959,Upshur,48459,Upshur
675603,ROSE HAVEN RETREAT,TX,Cass,ATLANTA,75551,33.1071,-94.165,Cass,48067,Cass
675606,HARLINGEN NURSING AND REHABILITATION CENTER,TX,Cameron,HARLINGEN,78550,26.1696,-97.685,Cameron,48061,Cameron
675611,THE VILLAGES OF DALLAS,TX,Dallas,DALLAS,75216,32.6966,-96.795,Dallas,48113,Dallas
675612,Paradigm at Westbury,TX,Harris,Houston,77035,29.6556,-95.47,Harris,48201,Harris
675614,BALLINGER HEALTHCARE AND REHABILITATION CENTER,TX,Runnels,BALLINGER,76821,31.7523,-99.965,Runnels,48399,Runnels
675617,EAGLE PASS NURSING AND REHABILITATION,TX,Maverick,EAGLE PASS,78852,28.7151,-100.48,Maverick,48323,Maverick
675619,AVIR AT BURNET,TX,Burnet,BURNET,78611,30.756,-98.233,Burnet,48053,Burnet
675620,BEAUMONT NURSING AND REHABILITATION,TX,Jefferson,BEAUMONT,77707,30.0675,-94.139,Jefferson,48245,Jefferson
675622,Cityview Nursing and Rehabilitation Center,TX,Tarrant,Fort Worth,76132,32.6656,-97.42,Tarrant,48439,Tarrant
675624,WHITEHALL REHAB & NURSING,TX,Houston,CROCKETT,75835,31.3211,-95.437,Houston,48225,Houston
675625,Avir at Pasadena,TX,Harris,PASADENA,77504,29.6586,-95.178,Harris,48201,Harris
675630,Gulf Shores Rehabilitation & Healthcare Center,TX,Brooks,Falfurrias,78355,27.2125,-98.148,Brooks,48047,Brooks
675633,HOLLAND LAKE REHABILITATION AND WELLNESS CENTER,TX,Parker,WEATHERFORD,76086,32.7428,-97.779,Parker,48367,Parker
675635,EBONY LAKE NURSING AND REHABILITATION CENTER,TX,Cameron,BROWNSVILLE,78520,25.921,-97.512,Cameron,48061,Cameron
675637,WOOLDRIDGE PLACE NURSING CENTER,TX,Nueces,CORPUS CHRISTI,78414,27.6773,-97.351,Nueces,48355,Nueces
675638,Twin Pines Nursing and Rehabilitation,TX,Victoria,Victoria,77904,28.8465,-96.978,Victoria,48469,Victoria
675641,Avir at Seguin,TX,Guadalupe,SEGUIN,78155,29.567,-97.948,Guadalupe,48187,Guadalupe
675645,MESA SPRINGS HEALTHCARE CENTER,TX,Taylor,ABILENE,79606,32.3642,-99.781,Taylor,48441,Taylor
675646,SNYDER OAKS CARE CENTER,TX,Scurry,SNYDER,79549,32.7044,-100.89,Scurry,48415,Scurry
675648,CONROE HEALTH CARE CENTER,TX,Montgomery,CONROE,77301,30.3322,-95.467,Montgomery,48339,Montgomery
675649,STONEBRIDGE HEALTH REHAB,TX,Travis,AUSTIN,78736,30.2267,-97.952,Travis,48453,Travis
675650,GARDEN TERRACE ALZHEIMER'S CENTER OF EXCELLENCE,TX,Tarrant,FORT WORTH,76132,32.6625,-97.424,Tarrant,48439,Tarrant
675651,San Marcos Rehabilitation and Healthcare Center,TX,Hays,San Marcos,78666,29.8826,-97.945,Hays,48209,Hays
675656,WALNUT SPRINGS HEALTH AND REHABILITATION,TX,Guadalupe,SEGUIN,78155,29.586,-97.95,Guadalupe,48187,Guadalupe
675663,Fort Bend Healthcare Center,TX,Fort Bend,Rosenberg,77471,29.5366,-95.819,Fort Bend,48157,Fort Bend
675664,SUNNY SPRINGS NURSING & REHAB,TX,Hopkins,SULPHUR SPRINGS,75482,33.1528,-95.597,Hopkins,48223,Hopkins
675666,BRIARCLIFF HEALTH CENTER OF GREENVILLE,TX,Hunt,GREENVILLE,75401,33.1262,-96.121,Hunt,48231,Hunt
675668,Wood Memorial Nursing and Rehabilitation,TX,Wood,Mineola,75773,32.6766,-95.487,Wood,48499,Wood
675671,GARDEN TERRACE ALZHEIMER'S CENTER OF EXCELLENCE,TX,Harris,HOUSTON,77054,29.6918,-95.393,Harris,48201,Harris
675672,River Ridge Nursing & Rehabilitation,TX,Nueces,Corpus Christi,78410,27.8581,-97.663,Nueces,48355,Nueces
675677,DEL RIO NURSING AND REHABILITATION CENTER,TX,Val Verde,DEL RIO,78840,29.3597,-100.9,Val Verde,48465,Val Verde
675678,CARE CHOICE OF BOERNE,TX,Kendall,BOERNE,78006,29.7963,-98.732,Kendall,48259,Kendall
675680,BRENTWOOD PLACE ONE,TX,Dallas,DALLAS,75227,32.912,-96.875,Dallas,48113,Dallas
675681,BRONTE HEALTH AND REHAB CENTER,TX,Coke,BRONTE,76933,31.8791,-100.29,Coke,48081,Coke
675687,HOLIDAY HILL INC,TX,Coleman,COLEMAN,76834,31.8278,-99.443,Coleman,48083,Coleman
675689,Village Healthcare and Rehabilitation,TX,Hidalgo,McAllen,78501,26.2131,-98.261,Hidalgo,48215,Hidalgo
675690,GOLDEN ESTATES REHABILITATION CENTER,TX,Bexar,SAN ANTONIO,78201,29.4843,-98.538,Bexar,48029,Bexar
675691,HUNTSVILLE HEALTH CARE CENTER,TX,Walker,HUNTSVILLE,77340,30.7027,-95.541,Walker,48471,Walker
675695,COLLEGE STREET HEALTH CARE CENTER,TX,Jefferson,BEAUMONT,77707,30.0682,-94.138,Jefferson,48245,Jefferson
675696,Country Village Care,TX,Brazoria,Angleton,77515,29.1639,-95.441,Brazoria,48039,Brazoria
675697,THE ARMY RESIDENCE COMMUNITY HEALTH CARE CENTER,TX,Bexar,SAN ANTONIO,78239,29.5222,-98.345,Bexar,48029,Bexar
675700,HARMONY CARE AT BROOKSHIRE,TX,Waller,BROOKSHIRE,77423,29.7724,-95.951,Waller,48473,Waller
675701,Lawrence Street Health Care Center,TX,Harris,Tomball,77375,30.0878,-95.626,Harris,48201,Harris
675702,BRENTWOOD PLACE TWO,TX,Dallas,DALLAS,75227,32.912,-96.875,Dallas,48113,Dallas
675703,Cross Timbers Rehabilitation and Healthcare Center,TX,Denton,Flower Mound,75028,33.0408,-97.08,Denton,48121,Denton
675708,AVIR AT KEENELAND,TX,Parker,WEATHERFORD,76086,32.7518,-97.815,Parker,48367,Parker
675709,TIMBERIDGE NURSING AND REHABILITATION CENTER,TX,Jasper,JASPER,75951,30.908,-94.004,Jasper,48241,Jasper
675712,Avir at Itasca,TX,Hill,ITASCA,76055,32.1592,-97.143,Hill,48217,Hill
675714,TOMBALL REHAB & NURSING,TX,Harris,TOMBALL,77375,30.1038,-95.614,Harris,48201,Harris
675716,POST NURSING & REHAB CENTER,TX,Garza,POST,79356,33.1881,-101.38,Garza,48169,Garza
675717,San Rafael Nursing and Rehabiliation,TX,Nueces,Corpus Chrisit,78415,27.7362,-97.411,Nueces,48355,Nueces
675722,FOCUSED CARE AT FORT STOCKTON,TX,Pecos,FORT STOCKTON,79735,30.8892,-102.91,Pecos,48371,Pecos
675723,NAZARETH LIVING CARE CENTER,TX,El Paso,EL PASO,79903,31.7883,-106.43,El Paso,48141,El Paso
675729,STONECREEK NURSING & REHABILITATION,TX,San Augustine,SAN AUGUSTINE,75972,31.5274,-94.126,San Augustine,48405,San Augustine
675736,YOAKUM NURSING AND REHABILITATION CENTER,TX,Lavaca,YOAKUM,77995,29.3066,-97.13,Lavaca,48285,Lavaca
675739,Ridgewood at the Woodlands,TX,Montgomery,The Woodlands,77381,30.1718,-95.503,Montgomery,48339,Montgomery
675740,KNOPP NURSING & REHAB CENTER INC,TX,Gillespie,FREDERICKSBURG,78624,30.2565,-98.884,Gillespie,48171,Gillespie
675743,THE PHOENIX POST-ACUTE,TX,Galveston,TEXAS CITY,77590,29.3934,-94.901,Galveston,48167,Galveston
675744,Friendship Haven Healthcare and Rehabilitation Cen,TX,Galveston,Friendswood,77546,29.5076,-95.192,Galveston,48167,Galveston
675746,CORONADO NURSING CENTER,TX,Taylor,ABILENE,79603,32.467,-99.741,Taylor,48441,Taylor
675748,HERITAGE TRAILS NURSING AND REHABILITATION CENTER,TX,Johnson,CLEBURNE,76033,32.3441,-97.41,Johnson,48251,Johnson
675751,Focused Care at Odessa,TX,Ector,Odessa,79763,31.8485,-102.4,Ector,48135,Ector
675754,TRAYMORE NURSING CENTER,TX,Dallas,DALLAS,75209,32.848,-96.837,Dallas,48113,Dallas
675755,CAPSTONE HEALTHCARE OF DAINGERFIELD,TX,Morris,DAINGERFIELD,75638,33.0282,-94.714,Morris,48343,Morris
675756,Williamsburg Village Healthcare Campus,TX,Dallas,Desoto,75115,32.6423,-96.88,Dallas,48113,Dallas
675757,SIGNATURE POINTE,TX,Dallas,DALLAS,75254,32.948,-96.804,Dallas,48113,Dallas
675759,STONEGATE NURSING AND REHABILITATION,TX,Tarrant,FORT WORTH,76109,32.7123,-97.385,Tarrant,48439,Tarrant
675765,WALNUT PLACE,TX,Dallas,DALLAS,75231,32.8834,-96.764,Dallas,48113,Dallas
675766,THE COURTYARD REHABILITATION AND HEALTHCARE CENTER,TX,Victoria,VICTORIA,77901,28.8251,-96.97,Victoria,48469,Victoria
675767,REGENCY HOUSE,TX,Tom Green,SAN ANGELO,76901,31.4265,-100.52,Tom Green,48451,Tom Green
675768,MOUNTAIN VILLA NURSING CENTER,TX,El Paso,EL PASO,79930,31.8049,-106.46,El Paso,48141,El Paso
675769,HARMONY CARE AT STAMFORD,TX,Jones,STAMFORD,79553,32.9345,-99.785,Jones,48253,Jones
675773,Brookdale Trinity Towers,TX,Nueces,Corpus Christi,78401,27.7923,-97.398,Nueces,48355,Nueces
675774,LEGEND HEALTHCARE AND REHABILITATION - GREENVILLE,TX,Hunt,GREENVILLE,75402,33.1111,-96.09,Hunt,48231,Hunt
675777,PARKWAY PLACE,TX,Harris,HOUSTON,77077,29.761,-95.628,Harris,48201,Harris
675779,Marine Creek Nursing and Rehabilitation,TX,Tarrant,Fort Worth,76106,32.8088,-97.369,Tarrant,48439,Tarrant
675783,THE VILLA AT MOUNTAIN VIEW,TX,Dallas,DALLAS,75211,32.7135,-96.909,Dallas,48113,Dallas
675785,EDINBURG NURSING AND REHABILITATION CENTER,TX,Hidalgo,EDINBURG,78539,26.2556,-98.186,Hidalgo,48215,Hidalgo
675788,OAK MANOR OF COMMERCE NURSING AND REHABILITATION,TX,Hunt,COMMERCE,75428,33.2312,-95.9,Hunt,48231,Hunt
675789,AVIR AT ARDEN WOOD,TX,Harris,HOUSTON,77055,29.8031,-95.507,Harris,48201,Harris
675790,GARLAND NURSING AND REHABILITATION,TX,Dallas,GARLAND,75042,32.9149,-96.665,Dallas,48113,Dallas
675791,Avir at Golfcrest,TX,Harris,Houston,77061,29.6723,-95.285,Harris,48201,Harris
675792,MANSFIELD NURSING & REHABILITATION CENTER,TX,Tarrant,MANSFIELD,76063,32.5658,-97.124,Tarrant,48439,Tarrant
675796,MERIDIAN CARE OF HEBBRONVILLE,TX,Jim Hogg,HEBBRONVILLE,78361,27.3189,-98.683,Jim Hogg,48247,Jim Hogg
675797,Weston Inn Nursing and Rehabilitation,TX,Bell,Temple,76504,31.0769,-97.371,Bell,48027,Bell
675798,ARBORETUM NURSING AND REHABILITATION CENTER OF WIN,TX,Chambers,WINNIE,77665,29.8268,-94.379,Chambers,48071,Chambers
675799,BRENHAM NURSING AND REHABILITATION CENTER,TX,Washington,BRENHAM,77833,30.1779,-96.404,Washington,48477,Washington
675800,LA VIDA SERENA NURSING AND REHABILITATION,TX,Val Verde,DEL RIO,78840,29.407,-100.92,Val Verde,48465,Val Verde
675801,GILMER NURSING AND REHABILITATION,TX,Upshur,GILMER,75644,32.7347,-94.944,Upshur,48459,Upshur
675802,KEMP CARE CENTER,TX,Kaufman,KEMP,75143,32.4289,-96.217,Kaufman,48257,Kaufman
675806,THE LAURENWOOD NURSING AND REHABILITATION,TX,Dallas,DUNCANVILLE,75116,32.6618,-96.913,Dallas,48113,Dallas
675808,WINDSOR REHABILITATION AND HEALTHCARE,TX,Kaufman,TERRELL,75160,32.7482,-96.317,Kaufman,48257,Kaufman
675809,AVIR AT LANCASTER,TX,Dallas,Lancaster,75146,32.6037,-96.768,Dallas,48113,Dallas
675810,"Lancaster LTC Partners, Inc.",TX,Dallas,Lancaster,75134,32.6066,-96.764,Dallas,48113,Dallas
675811,VICTORIA GARDENS OF FRISCO,TX,Collin,FRISCO,75035,33.1389,-96.787,Collin,48085,Collin
675812,WHISPERING PINES NURSING AND REHAB,TX,Wood,WINNSBORO,75494,32.948,-95.289,Wood,48499,Wood
675814,ARBOR GRACE GUEST CARE CENTER,TX,Gregg,KILGORE,75662,32.3639,-94.869,Gregg,48183,Gregg
675815,Kingsville Nursing and Rehabilitation Center,TX,Kleberg,Kingsville,78363,27.4871,-97.856,Kleberg,48273,Kleberg
675816,GREENBRIER NURSING & REHABILITATION CENTER OF PALE,TX,Anderson,PALESTINE,75803,31.7878,-95.62,Anderson,48001,Anderson
675817,Ft Worth Southwest Nursing Center,TX,Tarrant,Fort Worth,76133,32.6439,-97.404,Tarrant,48439,Tarrant
675818,PARK MANOR OF CYFAIR,TX,Harris,HOUSTON,77064,29.9267,-95.582,Harris,48201,Harris
675819,PARK MANOR OF SOUTH BELT,TX,Harris,HOUSTON,77089,29.5873,-95.206,Harris,48201,Harris
675820,THE LENNWOOD NURSING AND REHABILITATION,TX,Dallas,DALLAS,75237,32.6501,-96.877,Dallas,48113,Dallas
675821,Madisonville Care Center,TX,Madison,Madisonville,77864,30.9536,-95.913,Madison,48313,Madison
675822,Beltline Healthcare Center,TX,Dallas,Garland,75040,32.9335,-96.631,Dallas,48113,Dallas
675823,NORMANDY TERRACE NURSING & REHABILITATION CENTER,TX,Bexar,SAN ANTONIO,78220,29.4091,-98.404,Bexar,48029,Bexar
675826,SUNSET HOME,TX,Bosque,CLIFTON,76634,31.7759,-97.588,Bosque,48035,Bosque
675831,EDGEMERE ESTATES,TX,El Paso,EL PASO,79935,31.7916,-106.32,El Paso,48141,El Paso
675832,RISING STAR NURSING CENTER,TX,Eastland,RISING STAR,76471,32.0919,-98.965,Eastland,48133,Eastland
675834,BROOKDALE GALLERIA,TX,Harris,HOUSTON,77056,29.7371,-95.461,Harris,48201,Harris
675835,CHEROKEE TRAILS NURSING HOME,TX,Cherokee,RUSK,75785,31.813,-95.131,Cherokee,48073,Cherokee
675837,KRUSE VILLAGE SENIOR LIVING COMMUNITY,TX,Washington,BRENHAM,77833,30.1544,-96.38,Washington,48477,Washington
675838,BIRCHWOOD NURSING AND REHABILITATION,TX,Delta,COOPER,75432,33.3745,-95.7,Delta,48119,Delta
675840,Avir at Richland Hills,TX,Tarrant,Richland Hills,76118,32.8091,-97.227,Tarrant,48439,Tarrant
675842,MI CASITA NURSING AND REHABILITATION CENTER,TX,Lubbock,LUBBOCK,79410,33.5723,-101.91,Lubbock,48303,Lubbock
675846,AVIR AT SAN AUGUSTINE,TX,San Augustine,SAN AUGUSTINE,75972,31.528,-94.099,San Augustine,48405,San Augustine
675848,Focused Care at Webster,TX,Harris,Webster,77598,29.545,-95.123,Harris,48201,Harris
675849,FOCUSED CARE AT BURNET BAY,TX,Harris,BAYTOWN,77521,29.7653,-94.964,Harris,48201,Harris
675850,COASTAL PALMS NURSING & REHABILITATION,TX,San Patricio,PORTLAND,78374,27.8915,-97.314,San Patricio,48409,San Patricio
675851,GEORGIA MANOR NURSING HOME,TX,Randall,AMARILLO,79110,35.1615,-101.86,Randall,48381,Randall
675852,Advanced Rehabilitation and Healthcare of Wichita,TX,Wichita,Wichita Falls,76308,33.8548,-98.536,Wichita,48485,Wichita
675853,HANSFORD COUNTY HOSPITAL DISTRICT DBA LAKERIDGE NU,TX,Lubbock,LUBBOCK,79424,33.527,-101.91,Lubbock,48303,Lubbock
675856,Whitesboro Health and Rehabilitation Center,TX,Grayson,Whitesboro,76273,33.649,-96.89,Grayson,48181,Grayson
675857,William R Courtney Texas State Veterans Home,TX,Bell,Temple,76504,31.0816,-97.343,Bell,48027,Bell
675858,HERITAGE NURSING & REHABILITATION,TX,Bexar,SAN ANTONIO,78218,29.5035,-98.371,Bexar,48029,Bexar
675862,Avir at Park Bend,TX,Travis,Austin,78758,30.4085,-97.703,Travis,48453,Travis
675863,FRANK M TEJEDA TEXAS STATE VETERANS HOME,TX,Wilson,FLORESVILLE,78114,29.1284,-98.144,Wilson,48493,Wilson
675866,STEPHENVILLE NURSING AND REHABILITATION,TX,Erath,STEPHENVILLE,76401,32.208,-98.229,Erath,48143,Erath
675867,Kerens Care Center,TX,Navarro,Kerens,75144,32.1353,-96.228,Navarro,48349,Navarro
675868,HEREFORD NURSING & REHABILITATION,TX,Deaf Smith,HEREFORD,79045,34.8278,-102.42,Deaf Smith,48117,Deaf Smith
675870,Lindan Park Care Center LP,TX,Dallas,Richardson,75081,32.9661,-96.7,Dallas,48113,Dallas
675871,COMFORT NURSING AND REHABILITATION CENTER,TX,Kendall,COMFORT,78013,29.972,-98.907,Kendall,48259,Kendall
675873,CLYDE W COSPER TEXAS STATE VETERANS HOME,TX,Fannin,BONHAM,75418,33.5875,-96.168,Fannin,48147,Fannin
675874,LAMUN-LUSK-SANCHEZ TEXAS STATE VETERANS HOME,TX,Howard,BIG SPRING,79720,32.2628,-101.46,Howard,48227,Howard
675877,GREENBRIER HEALTH CARE CENTER,TX,Tarrant,ARLINGTON,76011,32.7501,-97.109,Tarrant,48439,Tarrant
675878,Avir at Grand Saline,TX,Van Zandt,GRAND SALINE,75140,32.6812,-95.714,Van Zandt,48467,Van Zandt
675879,Terrell Healthcare Center,TX,Kaufman,Terrell,75160,32.7376,-96.278,Kaufman,48257,Kaufman
675880,STERLING COUNTY NURSING HOME,TX,Sterling,STERLING CITY,76951,31.8373,-100.98,Sterling,48431,Sterling
675881,AVIR AT PECOS,TX,Reeves,PECOS,79772,31.3755,-103.52,Reeves,48389,Reeves
675882,VICTORIA GARDENS OF ALLEN,TX,Collin,ALLEN,75002,33.0966,-96.66,Collin,48085,Collin
675883,SOUTHEAST NURSING & REHABILITATION CENTER,TX,Bexar,SAN ANTONIO,78222,29.375,-98.411,Bexar,48029,Bexar
675884,TEAGUE NURSING AND REHABILITATION,TX,Freestone,TEAGUE,75860,31.651,-96.304,Freestone,48161,Freestone
675885,Avir at Caldwell,TX,Burleson,Caldwell,77836,30.5654,-96.749,Burleson,48051,Burleson
675886,CORYELL HEALTH REHABLIVING AT THE MEADOWS,TX,Coryell,GATESVILLE,76528,31.4331,-97.78,Coryell,48099,Coryell
675887,St. Joseph Manor,TX,Brazos,Bryan,77802,30.6593,-96.351,Brazos,48041,Brazos
675888,REUNION PLAZA HEALTHCARE & REHABILITATION,TX,Smith,TYLER,75703,32.2918,-95.321,Smith,48423,Smith
675889,PLEASANT MANOR HEALTHCARE REHABILITATION,TX,Ellis,WAXAHACHIE,75165,32.3494,-96.855,Ellis,48139,Ellis
675890,THE HEIGHTS AT MEDICAL CENTER,TX,Bexar,SAN ANTONIO,78229,29.5195,-98.561,Bexar,48029,Bexar
675891,Decatur Hospital Authority,TX,Wise,Bridgeport,76426,33.2191,-97.752,Wise,48497,Wise
675892,GULF POINTE PLAZA,TX,Aransas,ROCKPORT,78382,28.0404,-97.051,Aransas,48007,Aransas
675894,PARK MANOR OF CONROE,TX,Montgomery,CONROE,77301,30.2812,-95.466,Montgomery,48339,Montgomery
675896,RIVER CITY CARE CENTER,TX,Bexar,SAN ANTONIO,78202,29.4276,-98.47,Bexar,48029,Bexar
675897,FRANKLIN NURSING HOME,TX,Robertson,FRANKLIN,77856,31.0281,-96.491,Robertson,48395,Robertson
675898,CEDAR LAKE NURSING HOME,TX,Henderson,MALAKOFF,75148,32.1735,-96.001,Henderson,48213,Henderson
675899,MATAGORDA NURSING & REHABILITATION CENTER,TX,Matagorda,BAY CITY,77414,28.9574,-95.969,Matagorda,48321,Matagorda
675900,RIVER POINTE OF TRINITY HEALTHCARE AND REHABILITAT,TX,Trinity,TRINITY,75862,30.94,-95.375,Trinity,48455,Trinity
675901,CAMBRIDGE HEALTH AND REHABILITATION CENTER,TX,Fort Bend,RICHMOND,77469,29.5649,-95.758,Fort Bend,48157,Fort Bend
675902,Avir at Pilot Point,TX,Denton,PILOT POINT,76258,33.3981,-96.957,Denton,48121,Denton
675903,MEXIA LTC NURSING AND REHAB,TX,Limestone,MEXIA,76667,31.6887,-96.495,Limestone,48293,Limestone
675904,WINDFLOWER HEALTH CENTER,TX,Potter,AMARILLO,79106,35.2059,-101.9,Potter,48375,Potter
675905,BIRCHWOOD OF GRAPEVINE,TX,Tarrant,GRAPEVINE,76051,32.9452,-97.092,Tarrant,48439,Tarrant
675906,Benbrook Nursing & Rehabilitation Center,TX,Tarrant,Benbrook,76126,32.6774,-97.464,Tarrant,48439,Tarrant
675907,DIBOLL NURSING AND REHAB,TX,Angelina,DIBOLL,75941,31.1711,-94.789,Angelina,48005,Angelina
675908,AVANTE REHABILITATION CENTER,TX,Dallas,IRVING,75061,32.8154,-96.953,Dallas,48113,Dallas
675909,Harker Heights Nursing & Rehabilitation,TX,Bell,Harker Heights,76548,31.075,-97.661,Bell,48027,Bell
675910,FOCUSED CARE AT HOGAN PARK,TX,Midland,MIDLAND,79705,32.0301,-102.07,Midland,48329,Midland
675913,PFLUGERVILLE CARE CENTER,TX,Travis,PFLUGERVILLE,78660,30.4583,-97.634,Travis,48453,Travis
675914,GRACY WOODS II LIVING CENTER,TX,Travis,AUSTIN,78758,30.4019,-97.699,Travis,48453,Travis
675915,Park Place Care Center,TX,Williamson,Georgetown,78626,30.6648,-97.649,Williamson,48491,Williamson
675918,Gracy Woods Nursing Center,TX,Travis,Austin,78758,30.4022,-97.702,Travis,48453,Travis
675922,PARKVIEW MANOR NURSING AND REHABILITATION,TX,Colorado,WEIMAR,78962,29.7031,-96.772,Colorado,48089,Colorado
675923,MARBRIDGE VILLA,TX,Travis,MANCHACA,78652,30.1377,-97.858,Travis,48453,Travis
675924,WOODWAY REHABILITATION AND HEALTHCARE CENTER,TX,Mc Lennan,WACO,76712,31.5041,-97.206,Mclennan,48309,McLennan
675925,The Mildred & Shirley L. Garrison Geriatric Educat,TX,Lubbock,Lubbock,79415,33.5923,-101.9,Lubbock,48303,Lubbock
675927,FOCUSED CARE AT CRANE,TX,Crane,CRANE,79731,31.3916,-102.36,Crane,48103,Crane
675928,Sienna Nursing and Rehabilitation,TX,Ector,Odessa,79763,31.8396,-102.4,Ector,48135,Ector
675929,CEDAR CREEK NURSING AND REHABILITATION CENTER,TX,Bandera,BANDERA,78003,29.7325,-99.082,Bandera,48019,Bandera
675930,ARBROOK PLAZA,TX,Tarrant,ARLINGTON,76014,32.6848,-97.111,Tarrant,48439,Tarrant
675931,Avir at Camp Wood,TX,Real,Camp Wood,78833,29.6902,-100.02,Real,48385,Real
675932,ARBOR TERRACE HEALTHCARE CENTER,TX,Tom Green,SAN ANGELO,76903,31.4607,-100.42,Tom Green,48451,Tom Green
675933,TREASURE HILLS HEALTHCARE AND REHABILITATION CENTE,TX,Cameron,HARLINGEN,78550,26.1736,-97.671,Cameron,48061,Cameron
675934,LA DORA NURSING AND REHABILITATION CENTER,TX,Tarrant,BEDFORD,76021,32.8448,-97.137,Tarrant,48439,Tarrant
675935,LIFE CARE CENTER OF HALTOM,TX,Tarrant,FORT WORTH,76117,32.7987,-97.269,Tarrant,48439,Tarrant
675937,SAGEBROOK NURSING AND REHABILITATION,TX,Williamson,CEDAR PARK,78613,30.5208,-97.82,Williamson,48491,Williamson
675938,SHINER NURSING AND REHABILITATION CENTER INC,TX,Lavaca,SHINER,77984,29.4359,-97.174,Lavaca,48285,Lavaca
675939,Vintage Health Care Center,TX,Denton,Denton,76201,33.2159,-97.161,Denton,48121,Denton
675940,HEMPHILL CARE CENTER,TX,Sabine,HEMPHILL,75948,31.34,-93.862,Sabine,48403,Sabine
675942,TOWERS NURSING HOME,TX,Bastrop,SMITHVILLE,78957,30.0025,-97.135,Bastrop,48021,Bastrop
675943,NEW HOPE MANOR,TX,Williamson,CEDAR PARK,78613,30.5269,-97.856,Williamson,48491,Williamson
675944,OAK RIDGE MANOR,TX,Brown,BROWNWOOD,76801,31.6756,-98.993,Brown,48049,Brown
675945,WELLINGTON CARE CENTER,TX,Collingsworth,WELLINGTON,79095,34.8491,-100.22,Collingsworth,48087,Collingsworth
675946,Avir at Temple East,TX,Bell,TEMPLE,76502,31.0636,-97.369,Bell,48027,Bell
675947,Country Care Manor,TX,Wilson,La Vernia,78121,29.3481,-98.131,Wilson,48493,Wilson
675948,Avir at Belton,TX,Bell,Belton,76513,31.0658,-97.448,Bell,48027,Bell
675949,AVIR AT COWHORN CREEK,TX,Bowie,TEXARKANA,75503,33.4713,-94.078,Bowie,48037,Bowie
675954,CAPSTONE HEALTHCARE OF PERRYTON,TX,Ochiltree,PERRYTON,79070,36.3697,-100.8,Ochiltree,48357,Ochiltree
675956,WINDSOR NURSING AND REHABILITATION CENTER OF DUVAL,TX,Travis,AUSTIN,78727,30.418,-97.743,Travis,48453,Travis
675958,CHRISTIAN CARE CENTER,TX,Bowie,TEXARKANA,75501,33.4282,-94.078,Bowie,48037,Bowie
675959,SONGBIRD LODGE,TX,Brown,BROWNWOOD,76801,31.6819,-98.992,Brown,48049,Brown
675960,CASTLE PINES HEALTH AND REHABILITATION,TX,Angelina,LUFKIN,75904,31.3324,-94.764,Angelina,48005,Angelina
675961,REGENCY VILLAGE,TX,Harris,WEBSTER,77598,29.5401,-95.143,Harris,48201,Harris
675962,SOUTHLAND REHABILITATION AND HEALTHCARE CENTER,TX,Angelina,LUFKIN,75901,31.3398,-94.691,Angelina,48005,Angelina
675963,North Pointe Nursing and Rehabilitation,TX,Tarrant,Watauga,76148,32.8627,-97.249,Tarrant,48439,Tarrant
675964,MRC CREEKSIDE,TX,Walker,HUNTSVILLE,77340,30.7052,-95.575,Walker,48471,Walker
675966,THE VILLA AT TEXARKANA,TX,Bowie,TEXARKANA,75503,33.4657,-94.05,Bowie,48037,Bowie
675967,NORTHGATE PLAZA,TX,Dallas,IRVING,75062,32.8559,-96.973,Dallas,48113,Dallas
675968,STONE OAK CARE CENTER,TX,Bexar,SAN ANTONIO,78258,29.621,-98.494,Bexar,48029,Bexar
675969,SETTLERS RIDGE CARE CENTER,TX,Collin,CELINA,75009,33.3356,-96.769,Collin,48085,Collin
675970,MEMPHIS CONVALESCENT CENTER,TX,Hall,MEMPHIS,79245,34.7386,-100.55,Hall,48191,Hall
675971,Paradigm at the Oak,TX,Fayette,Schulenburg,78956,29.6825,-96.911,Fayette,48149,Fayette
675972,CARROLLTON HEALTH AND REHABILITATION CENTER,TX,Dallas,CARROLLTON,75006,32.948,-96.899,Dallas,48113,Dallas
675973,MCLEAN CARE CENTER,TX,Gray,MCLEAN,79057,35.2389,-100.6,Gray,48179,Gray
675974,MEDINA VALLEY HEALTH & REHABILITATION CENTER,TX,Medina,CASTROVILLE,78009,29.3694,-98.791,Medina,48325,Medina
675975,VILLAGE CREEK REHABILITATION AND NURSING CENTER,TX,Hardin,LUMBERTON,77657,30.2612,-94.199,Hardin,48199,Hardin
675976,WINFIELD REHAB & NURSING,TX,Houston,CROCKETT,75835,31.3216,-95.437,Houston,48225,Houston
675977,VILLAGE CREEK NURSING & REHABILITATION,TX,Tarrant,FORT WORTH,76119,32.708,-97.248,Tarrant,48439,Tarrant
675978,ARBOR GRACE WELLNESS CENTER,TX,Lamb,LITTLEFIELD,79339,33.9077,-102.34,Lamb,48279,Lamb
675979,CRESTVIEW RETIREMENT COMMUNITY,TX,Brazos,BRYAN,77802,30.6595,-96.349,Brazos,48041,Brazos
675980,AVIR AT DRIPPING SPRINGS,TX,Hays,DRIPPING SPRINGS,78620,30.1995,-98.108,Hays,48209,Hays
675981,Mineola Gardens Wellness & Rehabilitation,TX,Wood,MINEOLA,75773,32.662,-95.48,Wood,48499,Wood
675982,PARK PLAZA NURSING AND REHABILITATION CENTER,TX,Tom Green,SAN ANGELO,76901,31.4715,-100.48,Tom Green,48451,Tom Green
675985,Focused Care at Midland,TX,Midland,Midland,79705,32.0178,-102.08,Midland,48329,Midland
675986,Park Manor of Cypress Station,TX,Harris,Houston,77090,30.0237,-95.436,Harris,48201,Harris
675988,HILLTOP PARK REHABILITATION AND CARE CENTER,TX,Parker,WEATHERFORD,76086,32.746,-97.777,Parker,48367,Parker
675989,Avir at Knox City,TX,Knox,KNOX CITY,79529,33.4123,-99.812,Knox,48275,Knox
675991,PARK MANOR OF HUMBLE,TX,Harris,HUMBLE,77338,29.9981,-95.276,Harris,48201,Harris
675995,University Rehabilitation Center,TX,Denton,Denton,76208,33.1852,-97.096,Denton,48121,Denton
675996,Columbus Oaks Healthcare Community,TX,Colorado,Columbus,78934,29.7159,-96.538,Colorado,48089,Colorado
675997,CARILLON INC,TX,Lubbock,LUBBOCK,79416,33.5896,-101.93,Lubbock,48303,Lubbock
675998,LEGACY AT TOWN CREEK,TX,Anderson,PALESTINE,75801,31.7429,-95.65,Anderson,48001,Anderson
675999,ST JAMES HOUSE OF BAYTOWN,TX,Harris,BAYTOWN,77520,29.7694,-95.028,Harris,48201,Harris
676000,PINE RIDGE HEALTH CARE LLP,TX,Polk,LIVINGSTON,77351,30.5772,-94.686,Polk,48373,Polk
676002,THE PLAZA AT EDGEMERE,TX,Dallas,DALLAS,75225,32.8658,-96.795,Dallas,48113,Dallas
676003,Azle Manor Health Care and Rehabilitation,TX,Tarrant,Azle,76020,32.898,-97.534,Tarrant,48439,Tarrant
676004,THE HILLS NURSING & REHABILITATION,TX,Wise,DECATUR,76234,33.2215,-97.587,Wise,48497,Wise
676005,PARK PLACE NURSING & REHABILITATION CENTER,TX,Smith,TYLER,75701,32.3323,-95.27,Smith,48423,Smith
676006,RICHMOND HEALTH CARE CENTER,TX,Fort Bend,RICHMOND,77469,29.5812,-95.764,Fort Bend,48157,Fort Bend
676007,WILLOW REHAB & NURSING,TX,Gregg,KILGORE,75662,32.3707,-94.86,Gregg,48183,Gregg
676008,SILSBEE OAKS HEALTH CARE LLP,TX,Hardin,SILSBEE,77656,30.3429,-94.171,Hardin,48199,Hardin
676009,TREEMONT HEALTH CARE CENTER,TX,Harris,HOUSTON,77063,29.7407,-95.531,Harris,48201,Harris
676010,Legacy Rehabilitation and Living,TX,Randall,Amarillo,79109,35.1542,-101.88,Randall,48381,Randall
676011,MAGNOLIA PLACE HEALTH CARE,TX,Liberty,LIBERTY,77575,30.0691,-94.8,Liberty,48291,Liberty
676012,MYSTIC PARK NURSING & REHABILITATION CENTER,TX,Bexar,SAN ANTONIO,78254,29.522,-98.643,Bexar,48029,Bexar
676014,TWILIGHT HOME,TX,Navarro,CORSICANA,75110,32.0801,-96.496,Navarro,48349,Navarro
676015,MABEE HEALTH CARE CENTER,TX,Midland,MIDLAND,79707,32.0011,-102.15,Midland,48329,Midland
676017,"PREMIER HEALTH CARE CENTER, LLC",TX,Eastland,RANGER,76470,32.4725,-98.685,Eastland,48133,Eastland
676019,Lampstand Nursing and Rehabilitation,TX,Brazos,Bryan,77802,30.6594,-96.355,Brazos,48041,Brazos
676020,MENARD MANOR,TX,Menard,MENARD,76859,30.917,-99.784,Menard,48327,Menard
676021,CLAREWOOD HOUSE EXTENDED CARE CENTER,TX,Harris,HOUSTON,77036,29.7097,-95.515,Harris,48201,Harris
676023,KELLER OAKS HEALTHCARE CENTER,TX,Tarrant,KELLER,76248,32.9121,-97.188,Tarrant,48439,Tarrant
676025,AUTUMN LEAVES NURSING AND REHAB INC,TX,Rusk,HENDERSON,75652,32.1724,-94.789,Rusk,48401,Rusk
676026,WILL-O-BELL,TX,Bell,BARTLETT,76511,30.7985,-97.425,Bell,48027,Bell
676028,Southern Specialty Rehab & Nursing,TX,Lubbock,Lubbock,79407,33.5778,-101.9,Lubbock,48303,Lubbock
676029,WESTPARK REHABILITATION AND LIVING,TX,Tarrant,EULESS,76040,32.8255,-97.123,Tarrant,48439,Tarrant
676030,SHADY OAK NURSING AND REHABILITATION,TX,Lavaca,MOULTON,77975,29.5741,-97.15,Lavaca,48285,Lavaca
676031,MEADOW CREEK NURSING AND REHABILITATION,TX,Tom Green,SAN ANGELO,76904,31.4239,-100.5,Tom Green,48451,Tom Green
676033,Town Hall Estates,TX,Hill,Hillsboro,76645,32.0123,-97.098,Hill,48217,Hill
676034,BRADY WEST REHAB & NURSING,TX,Mc Culloch,BRADY,76825,31.1112,-99.338,Mcculloch,48307,McCulloch
676035,Kingsland Hills Care Center,TX,Llano,Kingsland,78639,30.6756,-98.458,Llano,48299,Llano
676036,VISTA RIDGE NURSING & REHABILITATION CENTER,TX,Denton,LEWISVILLE,75067,33.0001,-96.967,Denton,48121,Denton
676037,WESLACO NURSING AND REHABILITATION CENTER,TX,Hidalgo,WESLACO,78596,26.1409,-97.986,Hidalgo,48215,Hidalgo
676039,The Parks at Garland Healthcare and Rehab,TX,Dallas,GARLAND,75044,32.9505,-96.652,Dallas,48113,Dallas
676040,Paradigm at the Prairies,TX,Wharton,El Campo,77437,29.2074,-96.279,Wharton,48481,Wharton
676041,THE MISSION AT BLUE SKIES OF TEXAS EAST,TX,Bexar,SAN ANTONIO,78227,29.383,-98.645,Bexar,48029,Bexar
676042,McAllen Transitional Care Center,TX,Hidalgo,Mc Allen,78503,26.1827,-98.211,Hidalgo,48215,Hidalgo
676043,HOUSTON COUNTY NURSING HOME,TX,Houston,CROCKETT,75835,31.2706,-95.609,Houston,48225,Houston
676044,Avir at Magnolia,TX,Caldwell,Luling,78648,29.6985,-97.647,Caldwell,48055,Caldwell
676045,BRENTWOOD TERRACE HEALTHCARE AND REHABILITATION,TX,Lamar,PARIS,75460,33.6826,-95.548,Lamar,48277,Lamar
676046,CARE NURSING & REHABILITATION,TX,Brown,BROWNWOOD,76802,31.754,-98.924,Brown,48049,Brown
676047,"Town Hall Estates Keene, Inc.",TX,Johnson,Keene,76059,32.3948,-97.332,Johnson,48251,Johnson
676048,LEGEND OAKS HEALTHCARE AND REHABILITATION CENTER G,TX,Gregg,GLADEWATER,75647,32.5544,-94.975,Gregg,48183,Gregg
676049,LEGEND HEALTHCARE AND REHABILITATION - PARIS,TX,Lamar,PARIS,75460,33.657,-95.548,Lamar,48277,Lamar
676050,FOCUSED CARE AT PASADENA,TX,Harris,PASADENA,77504,29.6606,-95.179,Harris,48201,Harris
676051,BRIARCLIFF SKILLED NURSING FACILITY,TX,Panola,CARTHAGE,75633,32.1554,-94.342,Panola,48365,Panola
676052,IMMANUEL'S HEALTHCARE,TX,Tarrant,FORT WORTH,76119,32.6987,-97.248,Tarrant,48439,Tarrant
676053,Merkel Nursing Center,TX,Taylor,Merkel,79536,32.4717,-100.02,Taylor,48441,Taylor
676055,SHADY ACRES HEALTH AND REHABILITATION CENTER,TX,Newton,NEWTON,75966,30.8452,-93.746,Newton,48351,Newton
676059,PARK MANOR OF WESTCHASE,TX,Harris,HOUSTON,77082,29.7266,-95.652,Harris,48201,Harris
676060,Ambrosio Guillen Texas State Veterans Home,TX,El Paso,El Paso,79924,31.8892,-106.43,El Paso,48141,El Paso
676063,ALFREDO GONZALEZ TEXAS STATE VETERANS HOME,TX,Hidalgo,MCALLEN,78503,26.1782,-98.221,Hidalgo,48215,Hidalgo
676064,Paradigm at Katy,TX,Fort Bend,KATY,77494,29.7572,-95.832,Fort Bend,48157,Fort Bend
676066,Avir at Houston,TX,Harris,HOUSTON,77077,29.7409,-95.624,Harris,48201,Harris
676067,MIRA VISTA COURT,TX,Tarrant,FORT WORTH,76132,32.65,-97.429,Tarrant,48439,Tarrant
676068,Cedar Manor Nursing and Rehabilitation Center,TX,Tom Green,San Angelo,76901,31.4734,-100.47,Tom Green,48451,Tom Green
676069,Avir at Texarkana,TX,Bowie,Texarkana,75503,33.4675,-94.05,Bowie,48037,Bowie
676071,GROESBECK LTC PARTNERS,TX,Limestone,GROESBECK,76642,31.5225,-96.524,Limestone,48293,Limestone
676072,CORRIGAN LTC PARTNERS INC,TX,Polk,CORRIGAN,75939,31.0007,-94.826,Polk,48373,Polk
676073,Park Manor of Quail Valley,TX,Fort Bend,Missouri City,77459,29.5853,-95.564,Fort Bend,48157,Fort Bend
676074,WHITNEY NURSING AND REHABILITATION CENTER,TX,Hill,WHITNEY,76692,31.9495,-97.323,Hill,48217,Hill
676077,Stonewall Living Center,TX,Stonewall,Aspermont,79502,33.1516,-100.23,Stonewall,48433,Stonewall
676079,PARK VIEW NURSING CARE CENTER,TX,Bailey,MULESHOE,79347,34.2247,-102.74,Bailey,48017,Bailey
676080,"TOWN HALL ESTATES ARLINGTON, INC.",TX,Tarrant,Arlington,76015,32.6909,-97.118,Tarrant,48439,Tarrant
676081,EAST VIEW HEALTHCARE,TX,Harris,HOUSTON,77049,29.8095,-95.161,Harris,48201,Harris
676083,Brownsville Nursing and Rehabilitation Center,TX,Cameron,Brownsville,78520,25.9731,-97.511,Cameron,48061,Cameron
676086,GOLDTHWAITE HEALTH & REHAB CENTER,TX,Mills,GOLDTHWAITE,76844,31.4511,-98.572,Mills,48333,Mills
676087,Cimarron Place Health & Rehabilitation Center,TX,Nueces,Corpus Christi,78414,27.6658,-97.378,Nueces,48355,Nueces
676089,WINNIE L LTC PARTNERS INC,TX,Milam,Cameron,76520,30.8691,-96.981,Milam,48331,Milam
676090,Wesley Court Health Center,TX,Taylor,Abilene,79606,32.3726,-99.753,Taylor,48441,Taylor
676091,SAGECREST ALZHEIMERS CARE CENTER,TX,Tom Green,SAN ANGELO,76903,31.4753,-100.43,Tom Green,48451,Tom Green
676092,LEGACY AT JACKSONVILLE,TX,Cherokee,JACKSONVILLE,75766,31.9658,-95.225,Cherokee,48073,Cherokee
676093,ROCKDALE ESTATES & REHABILITATION,TX,Milam,ROCKDALE,76567,30.6432,-97.045,Milam,48331,Milam
676094,FOCUSED CARE AT ORANGE,TX,Orange,ORANGE,77630,30.0819,-93.758,Orange,48361,Orange
676095,WEST OAKS NURSING AND REHABILITATION CENTER,TX,Travis,AUSTIN,78748,30.1808,-97.844,Travis,48453,Travis
676096,BAYBROOKE VILLAGE CARE AND REHAB CENTER,TX,Collin,MCKINNEY,75070,33.1745,-96.765,Collin,48085,Collin
676097,GOLDEN CREEK HEALTHCARE AND REHABILITATION CENTER,TX,Grimes,NAVASOTA,77868,30.3889,-96.085,Grimes,48185,Grimes
676098,THE PLAZA AT RICHARDSON,TX,Dallas,RICHARDSON,75080,32.9667,-96.727,Dallas,48113,Dallas
676099,THE ARBOUR AT WESTMINSTER MANOR,TX,Travis,AUSTIN,78731,30.3161,-97.755,Travis,48453,Travis
676100,AVIR AT SAN ANGELO,TX,Tom Green,SAN ANGELO,76904,31.4017,-100.48,Tom Green,48451,Tom Green
676101,Ridgmar Medical Lodge,TX,Tarrant,Fort Worth,76116,32.7381,-97.431,Tarrant,48439,Tarrant
676103,Wells LTC Nursing & Rehabilitation,TX,Cherokee,Wells,75976,31.4914,-94.942,Cherokee,48073,Cherokee
676104,GRAPEVINE MEDICAL LODGE,TX,Tarrant,GRAPEVINE,76051,32.9323,-97.084,Tarrant,48439,Tarrant
676105,THE PLAZA AT LUBBOCK,TX,Lubbock,LUBBOCK,79416,33.6048,-101.92,Lubbock,48303,Lubbock
676107,CORPUS CHRISTI NURSING AND REHABILITATION CENTER,TX,Nueces,CORPUS CHRISTI,78414,27.6789,-97.364,Nueces,48355,Nueces
676108,VIDOR HEALTH & REHABILITATION CENTER,TX,Orange,VIDOR,77662,30.1365,-94.012,Orange,48361,Orange
676109,CALDER WOODS,TX,Jefferson,BEAUMONT,77706,30.0734,-94.175,Jefferson,48245,Jefferson
676111,THE BUCKINGHAM,TX,Harris,HOUSTON,77063,29.7417,-95.515,Harris,48201,Harris
676112,CRESTVIEW COURT,TX,Dallas,CEDAR HILL,75104,32.6044,-96.946,Dallas,48113,Dallas
676113,LEGEND OAKS HEALTHCARE AND REHABILITATION CENTER -,TX,Bexar,SAN ANTONIO,78224,29.3456,-98.539,Bexar,48029,Bexar
676114,RIVER HILLS HEALTH AND REHABILITATION CENTER,TX,Kerr,KERRVILLE,78028,30.0158,-99.127,Kerr,48265,Kerr
676116,FOCUSED CARE AT WESTWOOD,TX,Harris,HOUSTON,77099,29.6818,-95.563,Harris,48201,Harris
676117,BERTRAM NURSING AND REHABILITATION,TX,Burnet,BERTRAM,78605,30.7461,-98.06,Burnet,48053,Burnet
676119,RIO GRANDE CITY NURSING AND REHABILITATION CENTER,TX,Starr,RIO GRANDE CITY,78582,26.3784,-98.857,Starr,48427,Starr
676120,THE HOMESTEAD OF SHERMAN,TX,Grayson,SHERMAN,75090,33.642,-96.607,Grayson,48181,Grayson
676121,SILVER TREE NURSING AND REHABILITATION CENTER,TX,Guadalupe,SCHERTZ,78154,29.5664,-98.258,Guadalupe,48187,Guadalupe
676122,OAK GROVE NURSING HOME,TX,Jefferson,GROVES,77619,29.9344,-93.901,Jefferson,48245,Jefferson
676123,FAIRFIELD NURSING & REHABILITATION CENTER,TX,Freestone,FAIRFIELD,75840,31.7316,-96.166,Freestone,48161,Freestone
676124,PINECREST RETIREMENT COMMUNITY,TX,Angelina,LUFKIN,75904,31.3166,-94.732,Angelina,48005,Angelina
676125,Windsor Atrium,TX,Cameron,Harlingen,78550,26.1689,-97.657,Cameron,48061,Cameron
676127,Avir at North Richland Hills,TX,Tarrant,North Richland Hills,76180,32.8487,-97.214,Tarrant,48439,Tarrant
676128,THE MADISON ON MARSH,TX,Dallas,CARROLLTON,75006,32.9713,-96.856,Dallas,48113,Dallas
676131,BROOKDALE LAKEWAY SNF,TX,Travis,LAKEWAY,78734,30.3485,-97.977,Travis,48453,Travis
676132,Avir at Fort Worth,TX,Tarrant,FORT WORTH,76133,32.6418,-97.401,Tarrant,48439,Tarrant
676133,MAVERICK NURSING AND REHABILITATION CENTER,TX,Maverick,EAGLE PASS,78852,28.7101,-100.46,Maverick,48323,Maverick
676135,PRESBYTERIAN VILLAGE NORTH SPECIAL CARE CTR,TX,Dallas,DALLAS,75243,32.9077,-96.753,Dallas,48113,Dallas
676136,HUEBNER CREEK HEALTH & REHABILITATION CENTER,TX,Bexar,SAN ANTONIO,78240,29.5176,-98.606,Bexar,48029,Bexar
676137,LEGEND OAKS HEALTHCARE AND REHABILITATION CENTER -,TX,Harris,HOUSTON,77064,29.9028,-95.544,Harris,48201,Harris
676138,THE HEIGHTS OF GONZALES,TX,Gonzales,GONZALES,78629,29.5168,-97.458,Gonzales,48177,Gonzales
676139,GREEN OAKS NURSING & REHABILITATION,TX,Tarrant,ARLINGTON,76016,32.6965,-97.19,Tarrant,48439,Tarrant
676141,Matlock Place Health & Rehabilitation Center,TX,Tarrant,Arlington,76002,32.6292,-97.115,Tarrant,48439,Tarrant
676142,EMORY HEALTH AND REHAB,TX,Rains,EMORY,75440,32.8839,-95.76,Rains,48379,Rains
676143,MANSFIELD MEDICAL LODGE,TX,Tarrant,MANSFIELD,76063,32.5509,-97.079,Tarrant,48439,Tarrant
676144,SENIOR CARE HEALTH & REHABILITATION CENTER - WICHI,TX,Wichita,WICHITA FALLS,76302,33.8761,-98.482,Wichita,48485,Wichita
676145,PRAIRIE ESTATES,TX,Collin,FRISCO,75034,33.1534,-96.88,Collin,48085,Collin
676146,Town East Rehabilitation and Healthcare Center,TX,Dallas,Mesquite,75150,32.8144,-96.603,Dallas,48113,Dallas
676147,STALLINGS COURT NURSING AND REHABILITATION,TX,Nacogdoches,NACOGDOCHES,75965,31.6521,-94.649,Nacogdoches,48347,Nacogdoches
676148,Peach Tree Place,TX,Parker,Weatherford,76086,32.7471,-97.801,Parker,48367,Parker
676152,Seven Acres Jewish Senior Care Services,TX,Harris,Houston,77074,29.6785,-95.499,Harris,48201,Harris
676153,The Heights of League City,TX,Galveston,League City,77573,29.4786,-95.095,Galveston,48167,Galveston
676154,CAPSTONE HEALTHCARE OF HUGHES SPRINGS,TX,Cass,HUGHES SPRINGS,75656,32.941,-94.708,Cass,48067,Cass
676155,THE COURTYARDS AT PASADENA,TX,Harris,PASADENA,77503,29.6803,-95.149,Harris,48201,Harris
676156,PRESTONWOOD REHABILITATION & NURSING CENTER INC,TX,Denton,PLANO,75093,33.0342,-96.851,Denton,48121,Denton
676157,Ussery Roan Texas State Veterans Home,TX,Potter,Amarillo,79124,35.2193,-101.91,Potter,48375,Potter
676158,SONTERRA HEALTH CENTER,TX,Bexar,SAN ANTONIO,78258,29.614,-98.496,Bexar,48029,Bexar
676160,Kingwood Rehabilitation and Healthcare Center,TX,Montgomery,Kingwood,77339,30.0603,-95.254,Montgomery,48339,Montgomery
676161,Green Valley Healthcare and Rehabilitation Center,TX,Tarrant,Fort Worth,76148,32.8719,-97.238,Tarrant,48439,Tarrant
676163,MESQUITE POST ACUTE CARE,TX,Lubbock,LUBBOCK,79410,33.5697,-101.91,Lubbock,48303,Lubbock
676164,AVIR AT BELLVILLE,TX,Austin,BELLVILLE,77418,29.9537,-96.264,Austin,48015,Austin
676165,PARK MANOR OF TOMBALL,TX,Harris,TOMBALL,77375,30.0857,-95.619,Harris,48201,Harris
676166,Avir at Sealy,TX,Austin,Sealy,77474,29.7725,-96.168,Austin,48015,Austin
676167,BUCKNER WESTMINSTER PLACE,TX,Gregg,LONGVIEW,75605,32.5348,-94.749,Gregg,48183,Gregg
676168,RAMBLING OAKS COURTYARD EXTENSIVE CARE COMMUNITY,TX,Denton,HIGHLAND VILLAGE,75077,33.0772,-97.073,Denton,48121,Denton
676170,St Dominic Village Nursing Home,TX,Harris,Houston,77021,29.7149,-95.594,Harris,48201,Harris
676172,Groveton Nursing Home,TX,Trinity,Groveton,75845,31.0621,-95.138,Trinity,48455,Trinity
676173,KENEDY HEALTH & REHABILITATION,TX,Karnes,KENEDY,78119,28.813,-97.85,Karnes,48255,Karnes
676174,LEGACY NURSING AND REHABILITATION,TX,Milam,CAMERON,76520,30.8676,-96.973,Milam,48331,Milam
676175,PERMIAN RESIDENTIAL CARE CENTER,TX,Andrews,ANDREWS,79714,32.3379,-102.54,Andrews,48003,Andrews
676176,CROWLEY NURSING AND REHABILITATION,TX,Tarrant,CROWLEY,76036,32.5694,-97.346,Tarrant,48439,Tarrant
676177,GARRISON NURSING HOME & REHABILITATION CENTER,TX,Nacogdoches,GARRISON,75946,31.8313,-94.504,Nacogdoches,48347,Nacogdoches
676178,Duncanville Healthcare and Rehabilitation Center,TX,Dallas,Duncanville,75116,32.6493,-96.891,Dallas,48113,Dallas
676179,MIDLAND MEDICAL LODGE,TX,Midland,MIDLAND,79705,32.0488,-102.13,Midland,48329,Midland
676180,ELGIN NURSING AND REHABILITATION CENTER,TX,Bastrop,ELGIN,78621,30.3586,-97.39,Bastrop,48021,Bastrop
676181,The Heights of Atascosa,TX,Atascosa,PLEASANTON,78064,28.9599,-98.525,Atascosa,48013,Atascosa
676183,HUNTINGTON HEALTH CARE & REHABILITATION CENTER,TX,Angelina,HUNTINGTON,75949,31.2782,-94.574,Angelina,48005,Angelina
676184,Providence Park Rehabilitation and Skilled Nursing,TX,Smith,Tyler,75703,32.2898,-95.29,Smith,48423,Smith
676185,HARBOR LAKES NURSING AND REHABILITATION CENTER,TX,Hood,GRANBURY,76048,32.4335,-97.767,Hood,48221,Hood
676186,Castro County Nursing & Rehabilitation,TX,Castro,DIMMITT,79027,34.5415,-102.34,Castro,48069,Castro
676187,HERITAGE HOUSE OF MARSHALL HEALTH & REHABILITATION,TX,Harrison,MARSHALL,75672,32.5034,-94.309,Harrison,48203,Harrison
676188,Millbrook Healthcare and Rehabilitation Center,TX,Dallas,Lancaster,75146,32.6041,-96.798,Dallas,48113,Dallas
676189,THE LEGACY AT WILLOW BEND,TX,Collin,PLANO,75024,33.0766,-96.804,Collin,48085,Collin
676190,STILLHOUSE REHABILITATION AND HEALTHCARE CENTER,TX,Lamar,PARIS,75462,33.6898,-95.542,Lamar,48277,Lamar
676192,GARNET HILL REHABILITATION AND SKILLED CARE,TX,Dallas,WYLIE,75098,33.0339,-96.595,Dallas,48113,Dallas
676193,THE WATERTON HEALTHCARE & REHABILITATION,TX,Smith,TYLER,75703,32.2953,-95.264,Smith,48423,Smith
676194,MASON CREEK TRANSITIONAL CARE OF KATY,TX,Harris,KATY,77450,29.7784,-95.745,Harris,48201,Harris
676195,FALCON POINT POST ACUTE,TX,Harris,KATY,77494,29.7776,-95.783,Harris,48201,Harris
676196,CORNERSTONE GARDENS LLP,TX,Bell,TEMPLE,76505,31.0616,-97.362,Bell,48027,Bell
676197,RIDGEVIEW REHABILITATION AND SKILLED NURSING,TX,Johnson,CLEBURNE,76033,32.3308,-97.439,Johnson,48251,Johnson
676198,Querencia at Barton Creek,TX,Travis,Austin,78735,30.2894,-97.867,Travis,48453,Travis
676201,TUSCANY VILLAGE,TX,Brazoria,PEARLAND,77584,29.5585,-95.373,Brazoria,48039,Brazoria
676204,Focused Care at Cedar Bayou,TX,Harris,Baytown,77521,29.7698,-94.984,Harris,48201,Harris
676206,Windsor Arbor View,TX,Hidalgo,Edinburg,78539,26.304,-98.19,Hidalgo,48215,Hidalgo
676207,The Colonnades at Reflection Bay,TX,Brazoria,Pearland,77584,29.5784,-95.401,Brazoria,48039,Brazoria
676208,Eagle Crest Rapid Recovery,TX,Harris,Houston,77095,29.9154,-95.631,Harris,48201,Harris
676209,DECATUR MEDICAL LODGE,TX,Wise,DECATUR,76234,33.2149,-97.596,Wise,48497,Wise
676210,Focused Care at Summer Place,TX,Jefferson,Beaumont,77707,30.0508,-94.189,Jefferson,48245,Jefferson
676211,WESLEY WOODS HEALTH & REHABILITATION,TX,Mc Lennan,WACO,76712,31.4821,-97.217,Mclennan,48309,McLennan
676212,COLLEGE PARK REHABILITATION AND CARE CENTER,TX,Parker,WEATHERFORD,76086,32.7383,-97.788,Parker,48367,Parker
676213,HEWITT NURSING AND REHABILITATION,TX,Mc Lennan,HEWITT,76643,31.4603,-97.196,Mclennan,48309,McLennan
676214,"FALCON LAKE NURSING HOME, LLC",TX,Zapata,ZAPATA,78076,26.9005,-99.258,Zapata,48505,Zapata
676215,The Rehabilitation & Wellness Centre of Dallas LLC,TX,Dallas,Dallas,75204,32.7972,-96.779,Dallas,48113,Dallas
676216,REMINGTON TRANSITIONAL CARE OF SAN ANTONIO,TX,Bexar,SAN ANTONIO,78229,29.5166,-98.592,Bexar,48029,Bexar
676217,ROYSE CITY MEDICAL LODGE,TX,Rockwall,ROYSE CITY,75189,32.9987,-96.241,Rockwall,48397,Rockwall
676218,JEFFERSON NURSING AND REHABILITATION CENTER,TX,Jefferson,BEAUMONT,77706,30.1177,-94.182,Jefferson,48245,Jefferson
676219,WINDCREST HEALTH & REHABILITATION,TX,Taylor,ABILENE,79606,32.3759,-99.745,Taylor,48441,Taylor
676220,GRANITE MESA HEALTH CENTER,TX,Burnet,MARBLE FALLS,78654,30.5821,-98.27,Burnet,48053,Burnet
676221,HERITAGE PARK OF KATY NURSING AND REHABILITATION,TX,Harris,KATY,77493,29.7909,-95.827,Harris,48201,Harris
676222,BASTROP LOST PINES NURSING AND REHABILITATION CENT,TX,Bastrop,BASTROP,78602,30.1097,-97.331,Bastrop,48021,Bastrop
676223,Bayou Pines Care Center,TX,Galveston,La Marque,77568,29.3775,-95.012,Galveston,48167,Galveston
676224,THE HEIGHTS ON HUEBNER,TX,Bexar,SAN ANTONIO,78240,29.5371,-98.586,Bexar,48029,Bexar
676225,MITCHELL COUNTY NURSING AND REHABILITATION CENTER,TX,Mitchell,COLORADO CITY,79512,32.3993,-100.89,Mitchell,48335,Mitchell
676226,CYPRESS HEALTHCARE AND REHABILITATION CENTER,TX,Hays,SAN MARCOS,78666,29.8479,-97.951,Hays,48209,Hays
676227,COPPERAS HOLLOW NURSING & REHABILITATION CENTER,TX,Burleson,CALDWELL,77836,30.5431,-96.713,Burleson,48051,Burleson
676228,KENDALL HOUSE WELLNESS & REHABILITATION,TX,Kendall,BOERNE,78006,29.7743,-98.733,Kendall,48259,Kendall
676229,TRUCARE LIVING CENTERS-COLUMBUS,TX,Colorado,COLUMBUS,78934,29.6994,-96.559,Colorado,48089,Colorado
676230,Copperfield Healthcare and Rehabilitation,TX,Harris,Houston,77095,29.8899,-95.668,Harris,48201,Harris
676233,BANDERA NURSING & REHABILITATION,TX,Bandera,BANDERA,78003,29.7193,-99.066,Bandera,48019,Bandera
676234,THE VILLAGE AT GLEANNLOCH FARMS,TX,Harris,SPRING,77379,30.1039,-95.436,Harris,48201,Harris
676235,ROCK CREEK HEALTH AND REHABILITATION,TX,Hopkins,SULPHUR SPRINGS,75482,33.1364,-95.57,Hopkins,48223,Hopkins
676236,CHAMPIONS HEALTHCARE AT WILLOWBROOK,TX,Harris,HOUSTON,77070,29.9694,-95.543,Harris,48201,Harris
676237,THE BELMONT AT TWIN CREEKS,TX,Collin,ALLEN,75013,33.1111,-96.679,Collin,48085,Collin
676238,LEGEND OAKS HEALTHCARE AND REHABILITATION - NORTH,TX,Travis,AUSTIN,78754,30.3697,-97.668,Travis,48453,Travis
676239,VILLA TOSCANA AT CYPRESS WOODS,TX,Harris,HOUSTON,77014,29.9982,-95.467,Harris,48201,Harris
676240,CIBOLO CREEK,TX,Kendall,BOERNE,78006,29.788,-98.716,Kendall,48259,Kendall
676241,GREENHILL VILLAS,TX,Titus,MOUNT PLEASANT,75455,33.1918,-94.974,Titus,48449,Titus
676242,GANADO NURSING AND REHABILITATION CENTER,TX,Jackson,GANADO,77962,29.039,-96.512,Jackson,48239,Jackson
676243,REMINGTON TRANSITIONAL CARE OF RICHARDSON,TX,Dallas,RICHARDSON,75082,32.9854,-96.701,Dallas,48113,Dallas
676244,Willow Creek Lodge,TX,Harris,Tomball,77377,30.0284,-95.639,Harris,48201,Harris
676245,PFLUGERVILLE NURSING AND REHABILITATION CENTER,TX,Travis,PFLUGERVILLE,78660,30.4436,-97.629,Travis,48453,Travis
676246,RIVERSIDE NURSING AND REHABILITATION CENTER,TX,Travis,AUSTIN,78741,30.2229,-97.699,Travis,48453,Travis
676247,SANDY LAKE REHABILITATION AND CARE CENTER,TX,Dallas,COPPELL,75019,32.9663,-96.951,Dallas,48113,Dallas
676248,FOUNDERS PLAZA NURSING & REHAB,TX,Dallas,WYLIE,75098,33.0206,-96.526,Dallas,48113,Dallas
676249,The Carlyle at Stonebridge Park,TX,Tarrant,Southlake,76092,32.9374,-97.188,Tarrant,48439,Tarrant
676250,PECAN VALLEY REHABILITATION AND HEALTHCARE,TX,Bexar,SAN ANTONIO,78222,29.3747,-98.421,Bexar,48029,Bexar
676251,MISTY WILLOW HEALTHCARE AND REHABILITATION CENTER,TX,Harris,HOUSTON,77070,29.9642,-95.558,Harris,48201,Harris
676252,CAPSTONE HEALTHCARE ESTATES AT VETERANS MEMORIAL,TX,Harris,HOUSTON,77038,29.9209,-95.445,Harris,48201,Harris
676253,LEGEND OAKS HEALTHCARE AND REHABILITATION - ENNIS,TX,Ellis,ENNIS,75119,32.3085,-96.642,Ellis,48139,Ellis
676255,Fort Worth Transitional Care Center,TX,Tarrant,Fort Worth,76104,32.7357,-97.348,Tarrant,48439,Tarrant
676256,SAN REMO,TX,Dallas,RICHARDSON,75082,32.9972,-96.665,Dallas,48113,Dallas
676257,TRUCARE LIVING CENTERS,TX,Anderson,PALESTINE,75801,31.7296,-95.626,Anderson,48001,Anderson
676258,MEMORIAL CITY NURSING AND REHABILITATION CENTER,TX,Harris,HOUSTON,77055,29.7938,-95.523,Harris,48201,Harris
676259,SHINNERY OAKS COMMUNITY,TX,Yoakum,DENVER CITY,79323,32.9644,-102.82,Yoakum,48501,Yoakum
676260,THE MERIDIAN,TX,Galveston,GALVESTON,77550,29.2904,-94.788,Galveston,48167,Galveston
676262,THE HEIGHTS OF TYLER,TX,Smith,TYLER,75703,32.2773,-95.339,Smith,48423,Smith
676263,Deerbrook Skilled Nursing and Rehab Center,TX,Harris,Humble,77338,30.0015,-95.284,Harris,48201,Harris
676264,The Lev at Winchester,TX,Brazoria,ALVIN,77511,29.4341,-95.242,Brazoria,48039,Brazoria
676266,LONGHORN VILLAGE,TX,Travis,AUSTIN,78732,30.35,-97.911,Travis,48453,Travis
676267,BRODIE RANCH NURSING AND REHABILITATION CENTER,TX,Travis,AUSTIN,78748,30.1495,-97.842,Travis,48453,Travis
676268,Villages of Lake Highlands,TX,Dallas,Dallas,75238,32.8667,-96.704,Dallas,48113,Dallas
676269,RAYBURN HEALTH CARE & REHABILITATION,TX,Jasper,JASPER,75951,30.9005,-93.999,Jasper,48241,Jasper
676270,BRENTWOOD PLACE FOUR,TX,Dallas,DALLAS,75227,32.912,-96.875,Dallas,48113,Dallas
676271,ONION CREEK NURSING AND REHABILITATION CENTER,TX,Travis,AUSTIN,78748,30.1371,-97.798,Travis,48453,Travis
676272,LEGEND OAKS HEALTHCARE AND REHABILITATION-KYLE,TX,Hays,KYLE,78640,30.0205,-97.889,Hays,48209,Hays
676273,PARK MANOR OF THE WOODLANDS,TX,Montgomery,THE WOODLANDS,77384,30.2098,-95.461,Montgomery,48339,Montgomery
676274,REMARKABLE HEALTHCARE OF SEGUIN,TX,Guadalupe,SEGUIN,78155,29.5638,-97.944,Guadalupe,48187,Guadalupe
676275,RIDGECREST HEALTHCARE AND REHABILITATION CENTER,TX,Kaufman,FORNEY,75126,32.7522,-96.444,Kaufman,48257,Kaufman
676276,Lakewest Rehabilitation and Skilled Care,TX,Dallas,Dallas,75212,32.7871,-96.861,Dallas,48113,Dallas
676278,PECAN BAYOU NURSING AND REHABILITATION,TX,Brown,BROWNWOOD,76801,31.678,-98.99,Brown,48049,Brown
676279,CROWN POINT HEALTH SUITES,TX,Lubbock,LUBBOCK,79424,33.5319,-101.95,Lubbock,48303,Lubbock
676280,THE WESLEYAN SKILLED NURSING AND REHABILITATION,TX,Williamson,GEORGETOWN,78628,30.6738,-97.702,Williamson,48491,Williamson
676281,WESTOVER HILLS REHABILITATION AND HEALTHCARE,TX,Bexar,SAN ANTONIO,78251,29.4475,-98.68,Bexar,48029,Bexar
676282,BAYOU MANOR,TX,Harris,HOUSTON,77025,29.6874,-95.445,Harris,48201,Harris
676283,LOS ARCOS DEL NORTE CARE CENTER,TX,El Paso,EL PASO,79934,31.933,-106.42,El Paso,48141,El Paso
676286,MEADOW LAKE HEALTH CENTER,TX,Smith,TYLER,75703,32.2788,-95.304,Smith,48423,Smith
676288,AVIR AT COTULLA,TX,La Salle,COTULLA,78014,28.4453,-99.238,La Salle,48283,La Salle
676289,THE ATRIUM OF BELLMEAD,TX,Mc Lennan,BELLMEAD,76705,31.5794,-97.136,Mclennan,48309,McLennan
676290,SPJST REST HOME 1,TX,Williamson,TAYLOR,76574,30.5867,-97.411,Williamson,48491,Williamson
676291,OAKCREST NURSING AND REHABILITATION CENTER,TX,Travis,AUSTIN,78724,30.3297,-97.619,Travis,48453,Travis
676292,Avir at Luling,TX,Caldwell,Luling,78648,29.6876,-97.665,Caldwell,48055,Caldwell
676293,FOREST PARK NURSING & REHABILITATION,TX,Dallas,DALLAS,75235,32.8242,-96.853,Dallas,48113,Dallas
676294,HERITAGE HOUSE AT PARIS REHAB & NURSING,TX,Lamar,PARIS,75462,33.6674,-95.5,Lamar,48277,Lamar
676295,Epic Nursing & Rehabilitation,TX,Navarro,Corsicana,75110,32.0852,-96.504,Navarro,48349,Navarro
676297,THE RIO AT MISSION TRAILS,TX,Bexar,SAN ANTONIO,78223,29.3649,-98.458,Bexar,48029,Bexar
676298,SPJST REST HOME NO 2,TX,Fort Bend,NEEDVILLE,77461,29.4019,-95.841,Fort Bend,48157,Fort Bend
676299,SOUTHPARK MEADOWS NURSING AND REHABILITATION CENTE,TX,Travis,AUSTIN,78748,30.1633,-97.801,Travis,48453,Travis
676300,CANTON OAKS,TX,Van Zandt,CANTON,75103,32.536,-95.862,Van Zandt,48467,Van Zandt
676301,Avir at Schertz,TX,Guadalupe,SCHERTZ,78154,29.6064,-98.281,Guadalupe,48187,Guadalupe
676303,MIRADOR,TX,Nueces,CORPUS CHRISTI,78414,27.6768,-97.383,Nueces,48355,Nueces
676304,CREEKSIDE VILLAGE,TX,Brazoria,RICHWOOD,77531,29.0342,-95.399,Brazoria,48039,Brazoria
676305,THE STAYTON AT MUSEUM WAY,TX,Tarrant,FORT WORTH,76107,32.7484,-97.352,Tarrant,48439,Tarrant
676306,Holly Hall,TX,Harris,Houston,77054,29.6853,-95.402,Harris,48201,Harris
676307,OAK VILLAGE HEALTHCARE,TX,Brazoria,LAKE JACKSON,77566,29.0319,-95.454,Brazoria,48039,Brazoria
676308,San Gabriel Rehabilitation and Care Center,TX,Williamson,Round Rock,78665,30.5309,-97.651,Williamson,48491,Williamson
676309,BAYWOOD CROSSING REHABILITATION & HEALTHCARE CENTE,TX,Harris,PASADENA,77505,29.6368,-95.143,Harris,48201,Harris
676310,Solera at West Houston,TX,Harris,Houston,77084,29.7918,-95.706,Harris,48201,Harris
676311,WATKINS-LOGAN-GARRISON TEXAS STATE VETERAN'S HOME,TX,Smith,TYLER,75708,32.431,-95.207,Smith,48423,Smith
676312,LEGEND OAKS HEALTHCARE AND REHABILITATION - WEST S,TX,Bexar,SAN ANTONIO,78227,29.3998,-98.652,Bexar,48029,Bexar
676313,LAREDO NURSING AND REHABILITATION CENTER,TX,Webb,LAREDO,78041,27.5495,-99.489,Webb,48479,Webb
676314,Avir at Orem,TX,Harris,HOUSTON,77045,29.6282,-95.432,Harris,48201,Harris
676315,THE HILLCREST OF NORTH DALLAS,TX,Dallas,DALLAS,75252,33.005,-96.783,Dallas,48113,Dallas
676316,HIGH HOPE CARE CENTER OF BRENHAM,TX,Washington,BRENHAM,77833,30.1768,-96.399,Washington,48477,Washington
676317,The Harrison at Heritage,TX,Tarrant,Fort Worth,76244,32.9147,-97.287,Tarrant,48439,Tarrant
676318,WINDMILL VILLAGE REHABILITATION & CARE CENTER,TX,Lubbock,LUBBOCK,79403,33.5911,-101.82,Lubbock,48303,Lubbock
676319,CORINTH REHABILITATION SUITES ON THE PARKWAY,TX,Denton,CORINTH,76208,33.1532,-97.056,Denton,48121,Denton
676321,WINDSOR NURSING AND REHABILITATION CENTER OF CORPU,TX,Nueces,CORPUS CHRISTI,78404,27.7632,-97.413,Nueces,48355,Nueces
676323,The Crescent,TX,Fort Bend,Sugar Land,77478,29.616,-95.642,Fort Bend,48157,Fort Bend
676325,LAKESIDE NURSING AND REHABILITATION CENTER,TX,Bexar,SAN ANTONIO,78245,29.4321,-98.657,Bexar,48029,Bexar
676326,EDGEWOOD REHABILITATION AND CARE CENTER,TX,Dallas,MESQUITE,75149,32.7789,-96.622,Dallas,48113,Dallas
676327,THE SPRINGS HEALTHCARE AND REHABILITATION,TX,Williamson,CEDAR PARK,78613,30.5346,-97.808,Williamson,48491,Williamson
676328,LAS COLINAS OF WESTOVER,TX,Bexar,SAN ANTONIO,78251,29.4663,-98.681,Bexar,48029,Bexar
676329,CONTINUING CARE AT HIGHLAND SPRINGS,TX,Dallas,DALLAS,75252,32.9976,-96.765,Dallas,48113,Dallas
676331,HUNTERS POND REHABILITATION AND HEALTHCARE,TX,Bexar,SAN ANTONIO,78224,29.3197,-98.543,Bexar,48029,Bexar
676332,The Medical Resort at Bay Area,TX,Harris,Pasadena,77505,29.6368,-95.163,Harris,48201,Harris
676333,Magnolia Crossing Nursing and Rehabilitation Cente,TX,Harris,Houston,77089,29.5865,-95.22,Harris,48201,Harris
676334,CHELSEA GARDENS,TX,Fort Bend,MISSOURI CITY,77459,29.5663,-95.572,Fort Bend,48157,Fort Bend
676335,BROADMOOR MEDICAL LODGE,TX,Rockwall,ROCKWALL,75032,32.8798,-96.459,Rockwall,48397,Rockwall
676336,CONTINUING CARE AT EAGLES TRACE,TX,Harris,HOUSTON,77077,29.7502,-95.611,Harris,48201,Harris
676337,Houston Heights Nursing and Rehabilitation Center,TX,Harris,Houston,77091,29.8628,-95.459,Harris,48201,Harris
676341,CAPROCK NURSING & REHABILITATION,TX,Hutchinson,BORGER,79007,35.658,-101.4,Hutchinson,48233,Hutchinson
676342,ST. TERESA NURSING & REHAB CENTER,TX,El Paso,EL PASO,79925,31.7972,-106.34,El Paso,48141,El Paso
676343,ROYAL MANOR,TX,Mc Lennan,WACO,76712,31.4743,-97.208,Mclennan,48309,McLennan
676344,LEGACIES NURSING AND REHABILITATION,TX,Sabine,HEMPHILL,75948,31.3493,-93.836,Sabine,48403,Sabine
676345,BEL AIR AT TERAVISTA,TX,Williamson,ROUND ROCK,78665,30.5683,-97.67,Williamson,48491,Williamson
676346,HIDALGO NURSING AND REHABILITATION CENTER,TX,Hidalgo,EDINBURG,78539,26.2636,-98.185,Hidalgo,48215,Hidalgo
676347,AMARILLO CENTER FOR SKILLED CARE,TX,Potter,AMARILLO,79106,35.1987,-101.91,Potter,48375,Potter
676348,MADISON MEDICAL RESORT,TX,Ector,ODESSA,79762,31.9008,-102.34,Ector,48135,Ector
676349,ACCEL AT WILLOW BEND,TX,Collin,PLANO,75093,33.0357,-96.833,Collin,48085,Collin
676350,THE HEIGHTS OF TOMBALL,TX,Harris,TOMBALL,77375,30.0776,-95.626,Harris,48201,Harris
676351,DISCOVERY VILLAGE AT SOUTHLAKE,TX,Tarrant,SOUTHLAKE,76092,32.9335,-97.195,Tarrant,48439,Tarrant
676352,STONEMERE REHABILITATION CENTER,TX,Collin,FRISCO,75035,33.1159,-96.776,Collin,48085,Collin
676353,CORONADO AT STONE OAK,TX,Bexar,SAN ANTONIO,78258,29.6326,-98.496,Bexar,48029,Bexar
676355,Brenham Healthcare Center,TX,Washington,Brenham,77833,30.1481,-96.408,Washington,48477,Washington
676356,THE HEIGHTS OF NORTH HOUSTON,TX,Harris,HOUSTON,77090,30.0273,-95.435,Harris,48201,Harris
676357,THE BROADMOOR AT CREEKSIDE PARK,TX,Montgomery,THE WOODLANDS,77389,30.1415,-95.509,Montgomery,48339,Montgomery
676358,The Villages on MacArthur,TX,Dallas,Irving,75062,32.8518,-96.959,Dallas,48113,Dallas
676359,CORNERSTONE RETIREMENT COMMUNITY,TX,Bowie,TEXARKANA,75503,33.4712,-94.093,Bowie,48037,Bowie
676360,THE SHOAL,TX,Galveston,TEXAS CITY,77591,29.3866,-94.987,Galveston,48167,Galveston
676361,ARBOR HILLS REHABILITATION AND HEALTHCARE CENTER,TX,Colorado,EAGLE LAKE,77434,29.5889,-96.345,Colorado,48089,Colorado
676362,BRIDGECREST REHABILITATION SUITES,TX,Harris,HOUSTON,77049,29.8248,-95.17,Harris,48201,Harris
676363,Mustang Park Therapy and Living Center,TX,Denton,Carrollton,75010,33.0402,-96.867,Denton,48121,Denton
676364,MORADA TEMPLE,TX,Bell,TEMPLE,76502,31.0593,-97.373,Bell,48027,Bell
676365,WILLOW PARK REHABILITATION AND CARE CENTER,TX,Parker,WILLOW PARK,76087,32.6994,-97.773,Parker,48367,Parker
676367,BELTERRA HEALTH & REHAB,TX,Collin,MCKINNEY,75071,33.208,-96.68,Collin,48085,Collin
676368,TREVISO TRANSITIONAL CARE,TX,Gregg,LONGVIEW,75605,32.5461,-94.718,Gregg,48183,Gregg
676369,HOLLYMEAD,TX,Denton,FLOWER MOUND,75028,33.0419,-97.069,Denton,48121,Denton
676370,HARMONEE HOUSE,TX,Lamb,AMHERST,79312,34.0074,-102.42,Lamb,48279,Lamb
676371,WINDSOR QUAIL VALLEY POST-ACUTE HEALTHCARE,TX,Fort Bend,MISSOURI CITY,77459,29.5676,-95.562,Fort Bend,48157,Fort Bend
676372,TWIN PINES NORTH NURSING AND REHABILITATION CENTER,TX,Victoria,VICTORIA,77904,28.8693,-97.011,Victoria,48469,Victoria
676373,Park Manor Bee Cave,TX,Travis,Bee Cave,78738,30.3192,-97.937,Travis,48453,Travis
676374,Midlothian Healthcare Center,TX,Ellis,Midlothian,76065,32.475,-96.988,Ellis,48139,Ellis
676375,ST GILES NURSING AND REHABILITATION CENTER,TX,El Paso,EL PASO,79927,31.6866,-106.29,El Paso,48141,El Paso
676376,Silver Spring,TX,Taylor,Abilene,79601,32.479,-99.7,Taylor,48441,Taylor
676378,SORRENTO,TX,Bexar,SAN ANTONIO,78229,29.5107,-98.591,Bexar,48029,Bexar
676380,BIG SPRING CENTER FOR SKILLED CARE,TX,Howard,BIG SPRING,79720,32.2102,-101.49,Howard,48227,Howard
676381,WEST HOUSTON REHABILITATION AND HEALTHCARE CENTER,TX,Harris,HOUSTON,77083,29.6811,-95.617,Harris,48201,Harris
676382,Falcon Ridge Rehabilitation,TX,Williamson,Hutto,78634,30.5122,-97.579,Williamson,48491,Williamson
676384,"IGNITE MEDICAL RESORT SUGAR LAND, LLC",TX,Fort Bend,SUGAR LAND,77479,29.5882,-95.644,Fort Bend,48157,Fort Bend
676385,CROSSROADS NURSING & REHABILITATION,TX,Robertson,HEARNE,77859,30.8662,-96.593,Robertson,48395,Robertson
676386,West Rest Haven,TX,Mc Lennan,West,76691,31.8176,-97.092,Mclennan,48309,McLennan
676387,Highland Meadows,TX,Rockwall,ROCKWALL,75032,32.9044,-96.431,Rockwall,48397,Rockwall
676388,THE PAVILION AT CREEKWOOD,TX,Tarrant,MANSFIELD,76063,32.5767,-97.097,Tarrant,48439,Tarrant
676389,MATADOR HEALTH AND REHABILITATION CENTER,TX,Motley,MATADOR,79244,34.0244,-100.82,Motley,48345,Motley
676390,LEXINGTON MEDICAL LODGE,TX,Collin,FARMERSVILLE,75442,33.1586,-96.381,Collin,48085,Collin
676391,WINDSOR CALALLEN,TX,Nueces,CORPUS CHRISTI,78410,27.8588,-97.634,Nueces,48355,Nueces
676392,LEGEND OAKS HEALTHCARE AND REHABILITATION - NEW BR,TX,Comal,NEW BRAUNFELS,78130,29.7219,-98.064,Comal,48091,Comal
676393,Las Ventanas De Socorro,TX,El Paso,Socorro,79927,31.6604,-106.3,El Paso,48141,El Paso
676394,Woodlands Place Rehabilitation Suites,TX,Grayson,Denison,75020,33.7502,-96.559,Grayson,48181,Grayson
676395,THE HEALTHCARE RESORT OF PLANO,TX,Collin,PLANO,75075,33.0101,-96.756,Collin,48085,Collin
676396,S.P.J.S.T. REST HOME 3,TX,Wharton,EL CAMPO,77437,29.1479,-96.348,Wharton,48481,Wharton
676398,Fox Hollow Post Acute,TX,Cameron,Brownsville,78526,25.9527,-97.486,Cameron,48061,Cameron
676399,SAN SABA NURSING & REHABILITATION,TX,San Saba,SAN SABA,76877,31.1982,-98.742,San Saba,48411,San Saba
676400,MRC THE CROSSINGS,TX,Galveston,LEAGUE CITY,77573,29.5226,-95.08,Galveston,48167,Galveston
676402,WINDEMERE AT WESTOVER HILLS,TX,Bexar,SAN ANTONIO,78251,29.4595,-98.669,Bexar,48029,Bexar
676405,FORUM PARKWAY HEALTH & REHABILITATION,TX,Tarrant,BEDFORD,76021,32.8419,-97.113,Tarrant,48439,Tarrant
676406,TRUCARE LIVING CENTERS - SELMA,TX,Guadalupe,SELMA,78154,29.5903,-98.326,Guadalupe,48187,Guadalupe
676407,PUREHEALTH TRANSITIONAL CARE AT THR ARLINGTON,TX,Tarrant,ARLINGTON,76012,32.7561,-97.136,Tarrant,48439,Tarrant
676408,BEAR CREEK NURSING AND REHABILITATION,TX,Tarrant,GRAPEVINE,76051,32.9145,-97.127,Tarrant,48439,Tarrant
676409,The Brazos of Waco,TX,Mc Lennan,Waco,76711,31.4996,-97.16,Mclennan,48309,McLennan
676410,PURE HEALTH TRANSITIONAL CARE AT TEXAS HEALTH PRES,TX,Dallas,DALLAS,75231,32.8766,-96.751,Dallas,48113,Dallas
676411,CLARENDON NURSING HOME,TX,Donley,CLARENDON,79226,34.9362,-100.89,Donley,48129,Donley
676412,Fall Creek Rehabilitation and Healthcare Center,TX,Harris,Humble,77396,29.9355,-95.269,Harris,48201,Harris
676413,LEGEND OAKS HEALTHCARE AND REHABILITATION GARLAND,TX,Dallas,GARLAND,75044,32.9447,-96.667,Dallas,48113,Dallas
676414,MID VALLEY NURSING & REHABILITATION,TX,Hidalgo,MERCEDES,78570,26.1716,-97.878,Hidalgo,48215,Hidalgo
676415,SHERIDAN MEDICAL LODGE,TX,Wichita,BURKBURNETT,76354,34.0758,-98.557,Wichita,48485,Wichita
676416,Brightpointe at Lytle Lake,TX,Taylor,Abilene,79602,32.4397,-99.706,Taylor,48441,Taylor
676417,STERLING OAKS REHABILITATION,TX,Harris,KATY,77493,29.7987,-95.801,Harris,48201,Harris
676418,THE HEIGHTS OF BULVERDE,TX,Comal,SPRING BRANCH,78070,29.807,-98.422,Comal,48091,Comal
676419,LA HACIENDA DE PAZ REHABILITATION AND CARE CENTER,TX,Maverick,EAGLE PASS,78852,28.7138,-100.46,Maverick,48323,Maverick
676420,THE BRIGHTPOINTE,TX,Montgomery,CONROE,77304,30.2821,-95.474,Montgomery,48339,Montgomery
676421,LEGEND OAKS HEALTHCARE AND REHABILITATION - WAXAHA,TX,Ellis,WAXAHACHIE,75165,32.4322,-96.838,Ellis,48139,Ellis
676422,Palomino Place,TX,Dallas,Mesquite,75150,32.8074,-96.634,Dallas,48113,Dallas
676423,THE HALLMARK,TX,Harris,HOUSTON,77056,29.7503,-95.458,Harris,48201,Harris
676424,FARMERSVILLE HEALTH AND REHABILITATION,TX,Collin,FARMERSVILLE,75442,33.1578,-96.358,Collin,48085,Collin
676425,THE ENCLAVE,TX,Bexar,SAN ANTONIO,78258,29.6169,-98.477,Bexar,48029,Bexar
676426,Legend Oaks Healthcare and Rehabilitation - Fort W,TX,Tarrant,Keller,76244,32.9315,-97.29,Tarrant,48439,Tarrant
676427,Skilled Care of Mexia,TX,Limestone,Mexia,76667,31.6858,-96.482,Limestone,48293,Limestone
676428,"IGNITE MEDICAL RESORT EL PASO, LLC",TX,El Paso,EL PASO,79936,31.7932,-106.27,El Paso,48141,El Paso
676429,CARRARA,TX,Collin,PLANO,75093,33.0125,-96.783,Collin,48085,Collin
676430,ASHTON MEDICAL LODGE,TX,Midland,MIDLAND,79703,31.9773,-102.15,Midland,48329,Midland
676431,Avir at El Paso,TX,El Paso,El Paso,79911,31.8862,-106.57,El Paso,48141,El Paso
676432,CEDAR POINTE HEALTH AND WELLNESS CENTER,TX,Williamson,CEDAR PARK,78613,30.5316,-97.807,Williamson,48491,Williamson
676434,NORTH HOUSTON TRANSITIONAL CARE,TX,Harris,HOUSTON,77070,29.9669,-95.564,Harris,48201,Harris
676435,HOUSTON TRANSITIONAL CARE,TX,Harris,HOUSTON,77074,29.6851,-95.527,Harris,48201,Harris
676436,Thrive Rehabilitation of Pearland,TX,Brazoria,Pearland,77584,29.545,-95.33,Brazoria,48039,Brazoria
676437,ACCEL AT COLLEGE STATION,TX,Brazos,COLLEGE STATION,77845,30.581,-96.278,Brazos,48041,Brazos
676438,Killeen Nursing & Rehabilitation,TX,Bell,Killeen,76549,31.1198,-97.73,Bell,48027,Bell
676439,TRINITY REHABILITATION & HEALTHCARE CENTER,TX,Trinity,TRINITY,75862,30.9473,-95.367,Trinity,48455,Trinity
676440,"IGNITE MEDICAL RESORT ROUND ROCK, LLC",TX,Williamson,AUSTIN,78717,30.4905,-97.728,Williamson,48491,Williamson
676441,THE HEIGHTS OF ALAMO,TX,Hidalgo,ALAMO,78516,26.1627,-98.127,Hidalgo,48215,Hidalgo
676442,ROLLINGBROOK REHABILITATION AND HEALTHCARE CENTER,TX,Harris,BAYTOWN,77521,29.7612,-94.979,Harris,48201,Harris
676443,THE CENTER AT GRANDE,TX,Smith,TYLER,75707,32.2785,-95.256,Smith,48423,Smith
676444,BONNE VIE,TX,Jefferson,PORT ARTHUR,77640,29.8954,-93.956,Jefferson,48245,Jefferson
676446,Mission Valley Nursing and Transitional Care,TX,Hidalgo,Mission,78572,26.1943,-98.313,Hidalgo,48215,Hidalgo
676447,"IGNITE MEDICAL RESORT SAN ANTONIO, LLC",TX,Bexar,SAN ANTONIO,78229,29.5173,-98.602,Bexar,48029,Bexar
676448,THE RESERVE AT RICHARDSON,TX,Dallas,RICHARDSON,75080,32.972,-96.728,Dallas,48113,Dallas
676449,"IGNITE MEDICAL RESORT FORT WORTH, LLC",TX,Tarrant,FORT WORTH,76132,32.6628,-97.405,Tarrant,48439,Tarrant
676450,Terra Bella Health and Wellness Suites,TX,Harris,Houston,77047,29.6047,-95.386,Harris,48201,Harris
676452,ALLEGIANT WELLNESS AND REHAB,TX,Tarrant,CROWLEY,76036,32.578,-97.333,Tarrant,48439,Tarrant
676453,SIMPSON PLACE,TX,Dallas,DALLAS,75246,32.7886,-96.775,Dallas,48113,Dallas
676454,"IGNITE MEDICAL RESORT KATY, LLC",TX,Harris,KATY,77493,29.7868,-95.793,Harris,48201,Harris
676455,FIVE POINTS NURSING AND REHABILITATION,TX,Potter,AMARILLO,79124,35.1953,-101.93,Potter,48375,Potter
676457,THE BARTLETT SKILLED NURSING AND ASSISTED LIVING,TX,El Paso,EL PASO,79912,31.8418,-106.57,El Paso,48141,El Paso
676458,MABANK NURSING CENTER,TX,Kaufman,MABANK,75147,32.3759,-96.114,Kaufman,48257,Kaufman
676459,SEDONA TRACE HEALTH AND WELLNESS CENTER,TX,Travis,AUSTIN,78754,30.3394,-97.682,Travis,48453,Travis
676460,"IGNITE MEDICAL RESORT WEBSTER, LLC",TX,Harris,WEBSTER,77598,29.5568,-95.136,Harris,48201,Harris
676461,COUNTRY VIEW LIVING,TX,Castro,DIMMITT,79027,34.5413,-102.32,Castro,48069,Castro
676462,ST. ANTHONY'S CARE CENTER,TX,Mc Lennan,WACO,76712,31.4717,-97.18,Mclennan,48309,McLennan
676463,Crimson Heights Health & Wellness,TX,Harris,Humble,77338,30.001,-95.276,Harris,48201,Harris
676464,LAS BRISAS REHABILITATION AND WELLNESS CENTER,TX,Dallas,IRVING,75038,32.8714,-96.992,Dallas,48113,Dallas
676465,LAS ALTURAS NURSING & TRANSITIONAL CARE,TX,Webb,LAREDO,78041,27.5344,-99.474,Webb,48479,Webb
676466,CHEYENNE MEDICAL LODGE,TX,Dallas,MESQUITE,75149,32.7721,-96.573,Dallas,48113,Dallas
676467,Cypress Creek Rehabilitation and Healthcare Center,TX,Harris,Cypress,77429,29.952,-95.628,Harris,48201,Harris
676468,AVIR AT PATRIOT,TX,El Paso,EL PASO,79934,31.9274,-106.43,El Paso,48141,El Paso
676469,THE PREMIER SNF OF ALICE,TX,Jim Wells,ALICE,78332,27.7592,-98.052,Jim Wells,48249,Jim Wells
676470,Caraday of Houston,TX,Harris,Houston,77091,29.8601,-95.41,Harris,48201,Harris
676471,PARK VALLEY INN HEALTH CENTER,TX,Williamson,ROUND ROCK,78681,30.5127,-97.719,Williamson,48491,Williamson
676472,SUNDANCE INN HEALTH CENTER,TX,Comal,NEW BRAUNFELS,78130,29.7339,-98.095,Comal,48091,Comal
676473,CARADAY OF LAMPASAS,TX,Lampasas,LAMPASAS,76550,31.0784,-98.178,Lampasas,48281,Lampasas
676474,Le Reve Rehabilitation & Memory Care,TX,Dallas,Dallas,75228,32.806,-96.689,Dallas,48113,Dallas
676475,RIVERWOOD HEALTHCARE,TX,Madison,MADISONVILLE,77864,30.9468,-95.907,Madison,48313,Madison
676476,THE HEIGHTS ON VALLEY RANCH,TX,Montgomery,PORTER,77365,30.1157,-95.251,Montgomery,48339,Montgomery
676477,Cypress Springs Wellness & Rehabilitation,TX,Franklin,MOUNT VERNON,75457,33.1843,-95.228,Franklin,48159,Franklin
676478,HARBOR VALLEY HEALTH AND REHABILITATION,TX,Bexar,SAN ANTONIO,78242,29.3443,-98.617,Bexar,48029,Bexar
676479,RICHARD A. ANDERSON (STATE OF TEXAS VETERANS LAND,TX,Harris,HOUSTON,77048,29.6063,-95.341,Harris,48201,Harris
676480,Caraday Mesquite,TX,Dallas,Mesquite,75149,32.7709,-96.61,Dallas,48113,Dallas
676481,LAVACA BAY NURSING AND REHABILITATION CENTER,TX,Calhoun,PORT LAVACA,77979,28.6313,-96.641,Calhoun,48057,Calhoun
676482,CYPRESS POINTE HEALTH & WELLNESS,TX,Harris,HOUSTON,77095,29.9018,-95.629,Harris,48201,Harris
676483,VENTANA BY BUCKNER,TX,Dallas,DALLAS,75201,32.7839,-96.792,Dallas,48113,Dallas
676484,MONT BELVIEU REHABILITATION & HEALTHCARE CENTER,TX,Chambers,MONT BELVIEU,77523,29.7564,-94.969,Chambers,48071,Chambers
676485,PRINCETON MEDICAL LODGE,TX,Collin,PRINCETON,75407,33.1797,-96.524,Collin,48085,Collin
676486,Avir at Johnson City,TX,Blanco,JOHNSON CITY,78636,30.2715,-98.402,Blanco,48031,Blanco
676487,THE CENTER AT PARMER,TX,Williamson,AUSTIN,78717,30.503,-97.742,Williamson,48491,Williamson
676488,CEDAR HOLLOW REHABILITATION CENTER,TX,Grayson,SHERMAN,75090,33.5841,-96.604,Grayson,48181,Grayson
676489,THE LEGACY MIDTOWN PARK,TX,Anderson,DALLAS,75231,32.8941,-96.766,Anderson,48001,Anderson
676490,Sylan Shores Health and Wellness,TX,Harris,La Porte,77571,29.6565,-95.087,Harris,48201,Harris
676491,Mission Ridge Rehab & Nursing Center,TX,Refugio,Refugio,78377,28.3094,-97.279,Refugio,48391,Refugio
676492,METHODIST TRANSITIONAL CARE CENTER-DESOTO LLC,TX,Dallas,DESOTO,75115,32.5968,-96.867,Dallas,48113,Dallas
676493,SUN VALLEY REHABILITATION AND HEALTHCARE CENTER,TX,Cameron,HARLINGEN,78550,26.1659,-97.664,Cameron,48061,Cameron
676494,BLUEBONNET POINT WELLNESS,TX,Smith,BULLARD,75757,32.1507,-95.372,Smith,48423,Smith
676495,STARR COUNTY NURSING AND TRANSITIONAL CARE,TX,Starr,RIO GRANDE CITY,78582,26.4919,-98.739,Starr,48427,Starr
676496,Advanced Rehabilitation & Healthcare of Burleson,TX,Johnson,Burleson,76028,32.5176,-97.346,Johnson,48251,Johnson
676497,LAKESIDE HEALTH AND WELLNESS,TX,Henderson,KEMP,75143,32.4326,-96.223,Henderson,48213,Henderson
676498,THE VILLAGE AT INCARNATE WORD,TX,Bexar,SAN ANTONIO,78209,29.4696,-98.464,Bexar,48029,Bexar
676499,SPRINGTOWN PARK REHABILITATION AND CARE CENTER,TX,Parker,SPRINGTOWN,76082,32.9602,-97.683,Parker,48367,Parker
745000,LAS ALTURAS DE PENITAS,TX,Hidalgo,PENITAS,78576,26.2472,-98.44,Hidalgo,48215,Hidalgo
745001,ESTATES AT SHAVANO PARK,TX,Bexar,SHAVANO PARK,78249,29.5812,-98.568,Bexar,48029,Bexar
745002,KENT COUNTY NURSING HOME,TX,Kent,JAYTON,79528,33.2572,-100.57,Kent,48263,Kent
745004,THE BRIXTON AT HORSESHOE BAY,TX,Burnet,HORSESHOE BAY,78657,30.5442,-98.349,Burnet,48053,Burnet
745005,"Center at Zaragoza, LLC",TX,El Paso,El Paso,79938,31.7792,-106.26,El Paso,48141,El Paso
745006,FIVE POINTS NURSING AND REHABILITATION,TX,Dallas,DESOTO,75115,32.6274,-96.857,Dallas,48113,Dallas
745017,THE LODGE OF SAGINAW HEALTH AND WELLNESS,TX,Tarrant,SAGINAW,76179,32.8586,-97.376,Tarrant,48439,Tarrant
745019,James L West Center for Dementia Care,TX,Tarrant,Fort Worth,76102,32.7477,-97.342,Tarrant,48439,Tarrant
745021,AVIR AT LINDALE,TX,Smith,LINDALE,75771,32.5191,-95.398,Smith,48423,Smith
745022,WARE MEMORIAL CARE CENTER,TX,Potter,AMARILLO,79101,35.1987,-101.84,Potter,48375,Potter
745038,Avir at Tierra Este,TX,El Paso,EL PASO,79938,31.7822,-106.23,El Paso,48141,El Paso
745039,MIDTOWNE MEADOWS HEALTH AND REHAB,TX,Ellis,MIDLOTHIAN,76065,32.4783,-96.982,Ellis,48139,Ellis
745040,THE SARAH ROBERTS FRENCH HOME,TX,Bexar,SAN ANTONIO,78201,29.4494,-98.534,Bexar,48029,Bexar
745049,Las Alturas Nursing & Transitional Care Brownsvill,TX,Cameron,Brownsville,78521,25.9315,-97.466,Cameron,48061,Cameron
745050,Avir at Kerrville,TX,Kerr,KERRVILLE,78028,30.0272,-99.138,Kerr,48265,Kerr
745051,Five Points Nursing & Rehabilitation of College St,TX,Brazos,College Station,77845,30.6007,-96.287,Brazos,48041,Brazos
745054,LEGACY ESTATE LONG TERM CARE,TX,Comanche,COMANCHE,76442,31.9967,-98.563,Comanche,48093,Comanche
745055,MEMORIAL HEALTH CARE CENTER,TX,Gaines,SEMINOLE,79360,32.7206,-102.66,Gaines,48165,Gaines
745056,Southern Oaks Therapy and Living Center,TX,Dallas,Dallas,75216,32.7183,-96.778,Dallas,48113,Dallas
745057,TUSKEGEE AIRMEN TEXAS STATE VETERANS HOME,TX,Tarrant,FORT WORTH,76119,32.6723,-97.295,Tarrant,48439,Tarrant
